number,name,address,lat,lng,
909,00909 - PONT D'ARCOLE (STATION MOBILE),Voie Georges Pompidou - 75004 PARIS,48.855843, 2.3507829,
907,00907 - PONT NEUF (STATION MOBILE),63 Voie Georges Pompidou  - 75001 Paris,48.8583208245, 2.34240800142,
14103,14103 - MAINE LIANCOURT,132 / 136 AVENUE DU MAINE - 75014 PARIS,48.835064364, 2.32373144997,
32603,32603 - CALMETTE (LES LILAS),1 ALLEE DOCTEUR CALMETTE - 93260 LES LILAS,48.8811410157, 2.42497424307,
18110,18110 - DEPARTEMENT,FACE 53 RUE DU DEPARTEMENT - 75018 PARIS,48.8866656247, 2.36151933794,
42203,42203 - ELUARD (CHARENTON),FACE AU 7 RUE PAUL ELUARD - 94220 CHARENTON,48.820403894, 2.40840547216,
13028,13028 - GOUTHIERE,12 RUE GOUTHIERE - 75013 PARIS,48.820507, 2.351342,
8011,08011 - DUBLIN,1 RUE CLAPEYRON - 75008 PARIS,48.8809353568, 2.32451663515,
44102,44102 - VERDUN (SAINT MAURICE),14 avenue de Verdun - 94410 SAINT MAURICE,48.8221758049, 2.42150447606,
18105,18105 - BELIARD POISSONNIERS,157 BIS-159 RUE DES POISSONNIERS - 75018 PARIS,48.8974067879, 2.35252665936,
16008,16008 - GALILEE KLEBER,1 RUE GALILEE - 75016 PARIS,48.8674118657, 2.29078138011,
18020,18020 - RUISSEAU,31 RUE FRANCOEUR - 75018 PARIS,48.8910412326, 2.34001458544,
31703,31703 - CARNOT (BAGNOLET),177 RUE SADI CARNOT - 93170 BAGNOLET,48.8752669984, 2.42364949052,
19037,19037 - PORTE DES LILAS,304 RUE DE BELLEVILLE - 75019 PARIS,48.8766039189, 2.40476969113,
7016,07016 - TOUR MAUBOURG UNIVERSITE,13 RUE SURCOUF - 75007 PARIS,48.8612730163, 2.30945355091,
14003,14003 - RASPAIL SCHOELCHER,2 RUE VICTOR SCHOELCHER - 75014 PARIS,48.8368508158, 2.33130360086,
13039,13039 - IVRY POINTE D'IVRY,42 - 44 AVENUE D'IVRY - 75013 PARIS,48.8232196832, 2.36546962811,
19120,19120 - ALOUETTES,20 RUE CARDUCCI - 75019 PARIS,48.8775162569, 2.38609972037,
12122,12122 - POLYGONE,AVENUE DU POLYGONE - 75012 PARIS,48.8354449162, 2.43142108144,
12114,12114 - PORTE DE SAINT MANDE,33 AVENUE COURTELINE - 75012 PARIS,48.843949064, 2.41508139483,
8003,08003 - GALILLE,63 RUE GALILEE - 75008 PARIS,48.8717051914, 2.29852826568,
21112,21112 - DEBUSSY (CLICHY),31/35 AVENUE CLAUDE DEBUSSY - 92110 CLICHY,48.9104291257, 2.31176817577,
20031,20031 - DURIS,33 RUE DURIS - 75020 PARIS,48.8655408671, 2.38772449616,
21006,21006 - PARIS (BOULOGNE-BILLANCOURT),162 RUE DE PARIS - 92100 BOULOGNE-BILLANCOURT,48.8415970289, 2.23349677554,
42707,42707 - OKABE (LE KREMLIN-BICETRE),51 avenue de Fontainebleau - 94270 Le Kremlin-Bicetre,48.8123678294, 2.36180984825,
11110,11110 - SQUARE ROQUETTE,176 RUE DE LA ROQUETTE - 75011 PARIS,48.8592429763, 2.38659328921,
20111,20111 - L'ISLE ADAM PYRENÉES,60 RUE VILLIERS DE L'ISLE ADAM - 75020 PARIS,48.8673622972, 2.39622289099,
12124,12124 - PYRAMIDE ARTILLERIE,ROUTE DE L'ARTILLERIE - 75012 PARIS,48.8390411459, 2.43765533908,
19028,19028 - PLACE DES FETES,17 RUE DES FETES - 75019 PARIS,48.8764683397, 2.39228462979,
2107,02107 - THOREL,11 RUE THOREL - 75002 PARIS,48.8700006172, 2.34899551805,
42207,42207 - PARIS 3 (CHARENTON),136 RUE DE PARIS - 94220 CHARENTON,48.8266572063, 2.40587672301,
42014,42014 - CACHIN (IVRY),PLACE MARCEL CACHIN - 94200 IVRY SUR SEINE,48.8141405375, 2.39090936807,
15046,15046 - GEORGES BRASSENS,42 RUE DES MORILLONS - 75015 PARIS,48.8322073452, 2.30232873769,
10011,10011 - BOURSE DU TRAVAIL,3 RUE DU CHATEAU D'EAU - 75010 PARIS,48.8690917487, 2.36226176181,
20011,20011 - PYRÉNÉES-DAGORNO,103 RUE DES PYRENNEES - 75020 PARIS,48.855501354, 2.40516852064,
13037,13037 - IVRY BAUDICOURT,76 AVENUE D'IVRY - 75013 PARIS,48.8246959954, 2.36310607358,
15118,15118 - PLACE BIENVENUE,11 RUE DE L'ARRIVEE - 75015 PARIS,48.8431988281, 2.32225737728,
42201,42201 - NECKER (CHARENTON),RUE NECKER/ RUE DU PORT AUX LIONS - 94220 CHARENTON,48.8239632523, 2.39999842013,
11113,11113 - REPUBLIQUE FERRY,FACE 140 BOULEVARD RICHARD LENOIR - 75011 PARIS,48.8665160798, 2.36932253041,
12019,12019 - GARE DE REUILLY,58 RUE DE LA GARE DE REUILLY - 75012 PARIS,48.8425771005, 2.3972499906,
22011,22011 - MONTROSIER (NEUILLY),7 RUE MONTROSIER - 92200 NEUILLY,48.8794413696, 2.27853571712,
20133,20133 - RASSELINS,2 RUE DES RASSELINS - 75020 PARIS,48.8535286859, 2.40961536278,
34009,34009 - MAAR (SAINT OUEN),RUE DORA MAAR / GARE RER - 93400 SAINT OUEN,48.9052696294, 2.32217124869,
8054,08054 - HOCHE ALBRECHT,10 AVENUE BERTHIER ALBRECHT - 75008 PARIS,48.8761403983, 2.30130313831,
44101,44101 - PLACE MONGOLFIER (SAINT MAURICE),PLACE MONTGOLFIER - 94410 SAINT MAURICE,48.8150500062, 2.45923941481,
14106,14106 - STADE DIDOT,FACE 58 AVENUE MARC SANGNIER - 75014 PARIS,48.8253258701, 2.31067065347,
7001,07001 - DUROC,63 BOULEVARD DES INVALIDES - 75007 PARIS,48.8477698568, 2.31618388673,
19106,19106 - GARE EMGP,35, rue de la Gare - 75019 PARIS,48.90162,2017-04-08T18:23:33+02:00
21104,21104 - SANZILLON (CLICHY),64 RUE DE MADAME DE SANZILLON - 92110 CLICHY,48.9036767023, 2.31917665758,
33102,33102 - JAURES 1 (PRE SAINT GERVAIS),RUE GABRIEL PERI ANGLE AVENUE JAURES - 93310 LE PRE SAINT GERVAIS,48.8865269833, 2.40746868939,
16118,16118 - MICHEL ANGE,91 RUE MICHEL ANGE - 75016 PARIS,48.8406103997, 2.2583736582,
15041,15041 - LABROUSTE,13 RUE FRANQUET - 75015 PARIS,48.8328539083, 2.30689847821,
16103,16103 - TRAKTIR,3 RUE TRAKTIR - 75016 PARIS,48.872799156, 2.29150817943,
7022,07022 - PONT DE L'ALMA,3 AVENUE BOSQUET - 75007 PARIS,48.8616404996, 2.30225034418,
35012,35012 - CANDALE (PANTIN),FACE AU 12 RUE CANDALE - 93500 PANTIN,48.8894858402, 2.41430751511,
20107,20107 - STADE MARYSE HILSZ,26 RUE MARYSE HILSZ - 75020 PARIS,48.8512852762, 2.41273364163,
16038,16038 - RUE MOLITOR,RUE MOLITOR - 75016 PARIS,48.8450971265, 2.2657241479,
4020,04020 - BEAUBOURG PLACE MICHELET,FACE 27 RUE QUINCAMPOIX - 75004 PARIS,48.8600883261, 2.35014833592,
20027,20027 - PORTE DE MENILMONTANT,1 rue Vidal de la Blache / Angle 78 boulevard Mortier - 75020 PARIS,48.8691543609, 2.40932246879,
12015,12015 - NATION PICPUS,FACE 67 BOULEVARD DE PICPUS - 75012 PARIS,48.8469643595, 2.39986827743,
15040,15040 - MONCLAR,33 BIS RUE SAINT AMAND - 75015 PARIS,48.8341171478, 2.30885001547,
12031,12031 - LAME,49 RUE GABRIEL LAME - 75012 PARIS,48.8351380507, 2.38547848656,
15054,15054 - CHANDON,293 RUE LECOURBE - 75015 PARIS,48.837970342, 2.28758230704,
10029,10029 - PLACE DE ROUBAIX,39 RUE DE DUNKERQUE - 75010 PARIS,48.8807266858, 2.3514643332,
9004,09004 - ROCHECHOUART GERANDO,19 RUE GUERANDO - 75009 PARIS,48.8829110895, 2.34631937163,
19012,19012 - LALLY TOLLENDAL,5 RUE LALLY TOLLENDAL - 75019 PARIS,48.8827006442, 2.37469338894,
21018,21018 - SEINE (BOULOGNE-BILLANCOURT),FACE AU 13 RUE DE LA SEINE - 92100 BOULOGNE-BILLANCOURT,48.8282434942, 2.25065773964,
18027,18027 - DAMREMONT ORDENER,102 RUE DAMREMONT - 75018 PARIS,48.893400393, 2.33626652391,
9009,09009 - SQUARE MONTHOLON,26 RUE MONTHOLON - 75009 PARIS,48.8766011714, 2.3457855168,
15115,15115 - VAUGIRARD,25-31 BOULEVARD DE VAUGIRARD - 75015 PARIS,48.8413252598, 2.31829155159,
9036,09036 - ATHENES CLICHY,4 RUE D'ATHENES - 75009 PARIS,48.8781137879, 2.32956021946,
17050,17050 - BATIGNOLLES,1 RUE DES BATIGNOLLES - 75017 PARIS,48.8831039046, 2.32383474909,
31704,31704 - HORNET (BAGNOLET),FACE AU 1 RUE JEANNE HORNET - 93170 BAGNOLET,48.8739292, 2.42793357978,
43007,43007 - VORGES (VINCENNES),4 AVENUE VORGES - 94300 VINCENNES,48.8482577527, 2.43989289939,
13045,13045 - TOLBIAC ALBERT,FACE 1 RUE JEAN COLLY - 75013 PARIS,48.8278380326, 2.37053056386,
35003,35003 - VAILLANT (PANTIN),ANGLE RUE GENERAL GOSSERAND ET AVENUE EDOUARD VAILLANT - 93500 PANTIN,48.902691618, 2.39325582933,
20116,20116 - HAIES REUNION,53 RUE DES HAIES - 75020 PARIS,48.8538689677, 2.40242616224,
13005,13005 - ARAGO CORDELIERE - VERSION 2,2 RUE DES CORDELIERES - 75013 PARIS,48.835480719, 2.3485724617,
21106,21106 - MORICE 2 (CLICHY),2-4 RUE MORICE - 92110 CLICHY,48.9006603494, 2.30856953503,
19111,19111 - ROSA PARKS – GARE RER E,Parvis Nord Gare RER E ROSA PARKS - 75019 PARIS,48.8972395464, 2.37504277378,
21501,21501 - SELLIER (SURESNES),RUE DE SAINT CLOUD / BOULEVARD HENRI SELLIER - 92150 SURESNES,48.8675658061, 2.22599848496,
1007,01007 - ETIENNE MARCEL,2 RUE DE TURBIGO - 75001 PARIS,48.8635670471, 2.34770202114,
8105,08105 - FRANCOIS 1ER LINCOLN,56 RUE FRANCOIS 1ER - 75008 PARIS,48.8695179793, 2.30242621884,
16042,16042 - PORTE DE SAINT CLOUD,120 BOULEVARD MURAT - 75016 PARIS,48.83755526, 2.25797257271,
18022,18022 - BARBES MARCADET,57 RUE MARCADET - 75018 PARIS,48.890451121, 2.34905739297,
17007,17007 - NAVIER,FACE 57 RUE NAVIER - 75017 PARIS,48.8959141175, 2.32272736705,
17116,17116 - REIMS,6 BOULEVARD DE REIMS - 75017 PARIS,48.8918344482, 2.30014465995,
3013,03013 - RUE DE SEVIGNE,36 RUE DE SEVIGNE - 75003 PARIS,48.8569541481, 2.36289742023,
18005,18005 - TARDIEU,8 RUE TARDIEU - 75018 PARIS,48.8841632665, 2.34187980231,
8002,08002 - GARE SAINT LAZARE - COUR DU HAVRE,Cour du Havre - Face au 2, rue d'Amsterdam - 75008 PARIS,48.87572,2017-04-08T18:31:15+02:00
11042,11042 - OBERKAMPF,1 RUE DU GRAND PRIEURE - 75011 PARIS,48.8646494199, 2.36926143826,
20019,20019 - MAQUIS DU VERCORS - PORTE DES LILAS,PLACE DU MARQUIS DU VERCORS - 75020 PARIS,48.877336, 2.408573,
9002,09002 - MAUBEUGE CONDORCET,19 RUE D'ABBEVILLE - 75009 PARIS,48.8792233706, 2.34914749354,
14036,14036 - BOULARD DAGUERRE,14 RUE BOULARD - 75014 PARIS,48.834390797, 2.32930394655,
35008,35008 - LOLIVE 2 (PANTIN),132 RUE JEAN LOLIVE - 93500 PANTIN,48.8927196663, 2.41252957147,
15026,15026 - BIR HAKEIM,FACE 6 BOULEVARD DE GRENELLE - 75015 PARIS,48.8538440543, 2.28970534822,
18040,18040 - CHAPELLE MARX DORMOY,29 BOULEVARD DE LA CHAPELLE - 75018 PARIS,48.8845700632, 2.36021557266,
10006,10006 - PETITES ECURIES,5 RUE DES PETITES ECURIES - 75010 PARIS,48.8729397678, 2.35403448428,
7014,07014 - SAINT FRANCOIS XAVIER,35 BOULEVARD DES INVALIDES - 75007 PARIS,48.851678229, 2.31463384063,
11004,11004 - CHARONNE SAINT ANTOINE,3 RUE DE CHARONNE - 75011 PARIS,48.85225529, 2.37402723561,
13046,13046 - OUDINE PATAY,10 RUE EUGENE OUDINE - 75013 PARIS,48.8257129035, 2.37504430009,
11009,11009 - RUE DES BOULETS,45 RUE DES BOULETS - 75011 PARIS,48.8521930954, 2.38902165058,
18113,18113 - LEPIC,70 - 72 RUE LEPIC - 75018 PARIS,48.887573071, 2.33432733642,
8033,08033 - SAINT PHILIPPE DU ROULE,1 RUE DU CDT RIVIERE - 75008 PARIS,48.8727876808, 2.30972258893,
19025,19025 - BOTZARIS,FACE 80 RUE BOTZARIS - 75019 PARIS,48.8795614522, 2.38896041078,
11035,11035 - GONCOURT,140 AVENUE PARMENTIER - 75011 PARIS,48.8694696053, 2.37153681066,
15031,15031 - THEATRE,60 RUE DU THEATRE - 75015 PARIS,48.8481703414, 2.28990664646,
11010,11010 - ST ANTOINE GONNET,1 RUE DES BOULETS - 75011 PARIS,48.8492592621, 2.39175461419,
21303,21303 - ILES (ISSY LES MOULINEAUX),ANGLE AVENUE JEAN MONNET ET BOULEVARD DES ILES -  92130 ISSY LES MOULINEAUX,48.823450547, 2.24966529829,
17001,17001 - GUY MOQUET,RUE GUY MOQUET - 75017 PARIS,48.892822963, 2.32680348983,
8004,08004 - MALESHERBES PASQUIER,FACE 4 BD MALESHERBES - 75008 PARIS,48.8704218834, 2.32328899479,
10036,10036 - AQUEDUC,80 RUE DE L'AQUEDUC - 75010 PARIS,48.8838432657, 2.36711064403,
4105,04105 - MORLAND,17 BOULEVARD DU MORLAND - 75004 PARIS,48.8499600353, 2.36323986872,
18017,18017 - PECQUEUR,93 RUE CAULAINCOURT - 75018 PARIS,48.889677905, 2.33817871443,
10105,10105 - BONNE NOUVELLE PROP2,2 RUE DE MAZAGRAN - 75010 PARIS,48.8702780786, 2.35128163669,
9033,09033 - HAVRE CAUMARTIN,FACE 45 RUE CAUMARTIN - 75009 PARIS,48.8727950199, 2.32831574262,
14116,14116 - ROMAIN ROLLAND,49-51 BD ROMAIN ROLLAND - 75014 PARIS,48.8203236461, 2.32300304092,
12027,12027 - MONTGALLET CHARENTON,2 RUE MONTGALLET - 75012 PARIS,48.8426477787, 2.38616492781,
16028,16028 - MILLET - JEAN DE LA FONTAINE,12 RUE FRANCOIS MILLET - 75016 PARIS,48.8510048747, 2.27246948292,
5010,05010 - SAINT MICHEL HENRI BARBUSSE,1 RUE HENRI BARBUSSE - 75005 PARIS,48.8437569813, 2.33930672198,
43009,43009 - MURS DU PARC (VINCENNES),AVENUE DES MURS DU PARC - 94300 VINCENNES,48.8469612602, 2.4522373966,
19116,19116 - JAURES VILLETTE,180 BOULEVARD DE LA VILLETTE - 75019 PARIS,48.8814724985, 2.37026248226,
20043,20043 - CHARONNE AVRON,48 BOULEVARD DE CHARONNE - 75011 PARIS,48.8516026652, 2.39840304704,
2016,02016 - ABOUKIR,108 RUE D'ABOUKIR - 75002 PARIS,48.8686604815, 2.35018588824,
18006,18006 - MARCHE ST-PIERRE,PLACE SAINT PIERRE - 75018 PARIS,48.8846916064, 2.34413928595,
17012,17012 - MAIRIE DU 17EME,FACE 16 RUE DES BATIGNOLLES - 75017 PARIS,48.8841012932, 2.32220602535,
21003,21003 - JAURES 1 (BOULOGNE-BILLANCOURT),2 BOULEVARD JEAN JAURES -  92100 BOULOGNE-BILLANCOURT,48.8456381388, 2.23701147134,
14037,14037 - JEAN MOULIN,56 AVENUE JEAN MOULIN - 75014 PARIS,48.825709817, 2.32184998734,
11037,11037 - FAUBOURG DU TEMPLE PLACE DE LA REPUBLIQUE,2 RUE DU FAUBOURG DU TEMPLE - 75011 PARIS,48.868, 2.36498,
10034,10034 - CHAPELLE LOUIS BLANC,68 RUE LOUIS BLANC - 75010 PARIS,48.8838493184, 2.36005308899,
17041,17041 - PORTE DE VILLIERS,51 RUE GUERSANT - 75017 PARIS,48.8828777518, 2.28766737081,
11027,11027 - SAINT AMBROISE PARMENTIER,17 RUE SAINT AMBROISE - 75011 PARIS,48.8621350385, 2.37722985857,
12002,12002 - LACUEE,17 RUE LACUEE - 75012 PARIS,48.8492158626, 2.37050342387,
13122,13122 - PARC DE CHOISY,FACE 153 AVENUE DE CHOISY - 75013 PARIS,48.8281562516, 2.3585135329,
8015,08015 - ROQUEPINE,4 RUE ROQUEPINE - 75008 PARIS,48.8734861693, 2.32028123421,
19119,19119 - BOURET PAILLERON,20 RUE EDOUARD PAILLERON - 75019 PARIS,48.8805744614, 2.37685300056,
10002,10002 - STRASBOURG,3 BD STRASBOURG - 75010 PARIS,48.8696791245, 2.35432769738,
10153,10153 - GARE DU NORD 3,7 BOULEVARD DE DENAIN - 75010 PARIS,48.8795777185, 2.35446313115,
17019,17019 - MALESHERBES,20 RUE DE PHALSBOURG - 75017 PARIS,48.8826088164, 2.30902648734,
18032,18032 - PORTE DE CLIGNANCOURT,FACE 59 RUE BELLIARD - 75018 PARIS,48.8974884597, 2.34399649934,
20105,20105 - GAUMONT,AVENUE BENOIT FRACHON - 75020 PARIS,48.8525533927, 2.41554237211,
5017,05017 - DESCARTES,17 RUE DESCARTES - 75005 PARIS,48.8466018658, 2.34901473289,
7101,07101 - SEVRES BABYLONE,BOULEVARD RASPAIL - 75007 PARIS,48.8522416177, 2.32660601948,
18024,18024 - CLIGNANCOURT MARCADET,105 RUE DE CLIGNANCOURT - 75018 PARIS,48.8914577262, 2.34863647806,
15020,15020 - MAIRIE DU 15EME,4 RUE LEON SECHE - 75015 PARIS,48.8417096402, 2.29854929401,
33103,33103 - JAURES 2 (PRE SAINT GERVAIS),34 AVENUE JEAN JAURES - 93310 LE PRE SAINT GERVAIS,48.8840012644, 2.40798991939,
19013,19013 - LAUMIERE,8 & 1 RUE PETIT - 75019 PARIS,48.8845807407, 2.38012665025,
5015,05015 - MOUFFETARD EPEE DE BOIS,12 RUE DE L'EPEE DE BOIS - 75005 PARIS,48.8415076374, 2.34998304703,
15109,15109 - CEVENNES,65 - 67 RUE DES CEVENNES - 75015 PARIS,48.8424414522, 2.28107075522,
5004,05004 - SAINT JACQUES VAL DE GRACE,272 RUE SAINT JACQUES - 75005 PARIS,48.8418659565, 2.34120202666,
23006,23006 - GUESDE (LEVALLOIS),8 RUE JULES GUESDE - 92300 LEVALLOIS-PERRET,48.8908603229, 2.29500037014,
16111,16111 - HELIE,4 - 6 rue Faustin Helie - 75016 PARIS,48.8594030819, 2.27652208903,
1006,01006 - GRANDE TRUANDERIE,2-4 rue DE LA GRANDE TRUANDERIE 75001 PARIS,48.8626318042, 2.34973214483,
18047,18047 - ST OUEN LAMARCK,53 AVENUE DE SAINT OUEN - 75018 PARIS,48.8910830403, 2.32673569484,
12022,12022 - BIZOT,FACE 29 RUE DU SAHEL - 75012 PARIS,48.8408998138, 2.40438010296,
42202,42202 - RONSARD (CHARENTON),1 RUE  KENNEDY / ALLEE RONSARD - 94220 CHARENTON,48.8227360121, 2.40565920321,
13033,13033 - PORTE D'ITALIE,15 AVENUE DE LA PORTE D'ITALIE - 75013 PARIS,48.8173123004, 2.36021848094,
42002,42002 - GARE (IVRY),VIS-A-VIS DU 17 RUE DE LA GARE - 94200 IVRY SUR SEINE,48.8149264672, 2.39200163582,
1004,01004 - MARGUERITE DE NAVARRE,12 RUE DES HALLES - 75001 PARIS,48.8598963144, 2.34675666755,
42010,42010 - ROBESPIERRE (IVRY),1 RUE ROBESPIERRE - 94200 IVRY,48.8108458646, 2.38395086342,
15122,15122 - PLACE CHARLES VALLIN,PLACE CHARLES VALLIN - 75015 PARIS,48.8355247536, 2.30262194094,
8020,08020 - METRO ROME,74 BOULEVARD DES BATIGNOLLES - 75008 PARIS,48.8821489456, 2.31986005477,
7012,07012 - CITE VANEAU,7 CITE VANEAU - 75007 PARIS,48.8542683341, 2.31945401006,
13040,13040 - PORTE DE CHOISY,111 BOULEVARD MASSENA - 75013 PARIS,48.8199419657, 2.36507858639,
15064,15064 - JAVEL,DEV 5 AVENUE EMILE ZOLA - 75015 PARIS,48.8462949183, 2.27841391259,
22012,22012 - MICHELIS (NEUILLY),32 RUE DE MADELEINE MICHELIS - 92200 NEUILLY,48.8827499155, 2.27740638128,
4012,04012 - ECOUFFES RIVOLI,2 RUE TIRON - 75004 PARIS,48.8557966374, 2.35790788214,
5018,05018 - MUTUALITE,20 RUE MONGE - 75005 PARIS,48.8483857647, 2.35016993902,
35006,35006 - DELIZY (PANTIN),FACE AU 23 RUE DELIZY - 93500 PANTIN,48.8963319317, 2.40908765273,
21204,21204 - D'ORVES (MONTROUGE),FACE 44 RUE D'ESTIENNES D'ORVES / PISCINE - 92120 MONTROUGE,48.8153882204, 2.32088679076,
31002,31002 - REPUBLIQUE (MONTREUIL),38 RUE DE LA REPUBLIQUE - 93100 MONTREUIL,48.8528141913, 2.41930708875,
14125,14125 - DAREAU,34 RUE DAREAU - 75014 PARIS,48.8307232146, 2.3361465572,
43008,43008 - FONTENAY (VINCENNES),12 RUE DE FONTENAY - 94300 VINCENNES,48.8477906645, 2.44469088783,
33104,33104 - JOINEAU (PRE SAINT GERVAIS),RUE ANDRE JOINEAU / PLACE ANATOLE FRANCE - 93310 LE PRE SAINT GERVAIS,48.8836202338, 2.40324031837,
14108,14108 - JOURDAN LE BRIX ET MESNIN,RUE LE BRIX ET MESNIN - 75014 PARIS,48.8223409659, 2.3278616533,
19118,19118 - BOLIVAR BURNOUF,82 AVENUE SIMON BOLIVAR - 75019 PARIS,48.8771241777, 2.37427650924,
6008,06008 - ASSAS LUXEMBOURG,90 RUE D'ASSAS - 75006 PARIS,48.8437344688, 2.33342838188,
18001,18001 - DAMREMONT CAULAINCOURT,6 RUE DAMREMONT - 75018 PARIS,48.8872746426, 2.33264836385,
10014,10014 - BEAUREPAIRE,14 RUE DE MARSEILLE - 75010 PARIS,48.871662662, 2.36393331138,
19115,19115 - PORTE DE LA VILLETTE,1 AVENUE DE LA PORTE DE LA VILLETTE - 75019 PARIS,48.8984900531, 2.38612000821,
19027,19027 - SERRURIER,FACE 109 BOULEVARD SERURIER - 75019 PARIS,48.8806060536, 2.39789629061,
19026,19026 - DANUBE,53 RUE MIGUEL HIDALGO - 75019 PARIS,48.8819531724, 2.39249621665,
17030,17030 - RENNEQUIN PEREIRE,143 BOULEVARD DE PEREIRE - 75017 PARIS,48.8836391539, 2.29515206745,
15103,15103 - SQUARE DES CÉVENNES,01 RUE CAUCHY - 75015 PARIS,48.8434172324, 2.27510833206,
20025,20025 - GAMBETTA GATINES,13 RUE DES GATINES - 75020 PARIS,48.8653941647, 2.39781447531,
10025,10025 - ECLUSES SAINT MARTIN,148 QUAI DE JEMMAPES - 75010 PARIS,48.8774203431, 2.36601144898,
13038,13038 - CHOISY POINT D'IVRY,28 AVENUE DE CHOISY - 75013 PARIS,48.8219079688, 2.36333471061,
1010,01010 - PONT NEUF,10 RUE BOUCHER - 75001 PARIS,48.8594623892, 2.34436612845,
13120,13120 - VITRY DESAULT,RUE PIERRE ET JOSEPH DESAULT - 75013 PARIS,48.8211387514, 2.37871860661,
12028,12028 - VIVALDI,42 ALLEE VIVALDI - 75012 PARIS,48.8419236633, 2.38972897947,
9022,09022 - LAFITTE ROSSINI,19 RUE ROSSINI - 75009 PARIS,48.8733462751, 2.3379808677,
16029,16029 - MAISON DE RADIO FRANCE,1 RUE GROS - 75016 PARIS,48.8513599126, 2.27769726945,
14006,14006 - SAINT JACQUES TOMBE ISSOIRE,46 BOULEVARD SAINT JACQUES - 75014 PARIS,48.8331903188, 2.33693339125,
31702,31702 - CURIE (BAGNOLET),40 PIERRE ET MARIE CURIE - 93170 BAGNOLET,48.8706580129, 2.42404643754,
18038,18038 - ROND POINT DE LA CHAPELLE,70 RUE DE LA CHAPELLE - 75018 PARIS,48.8952199047, 2.3600976191,
17119,17119 - TOQUEVILLE,64 RUE DE TOQUEVILLE - 75017 PARIS,48.8849243589, 2.31090855294,
11021,11021 - PHILIPPE AUGUSTE (20EME ARR.),212 BOULEVARD CHARONNE - 75011 PARIS,48.8584450543, 2.39039812239,
16121,16121 - SABLONS MAILLOT,ROUTE PORTE DES SABLONS / PORTE MAILLOT - 75016 PARIS,48.8787208918, 2.27056809721,
20109,20109 - SURMELIN HAXO,2 RUE HAXO - 75020 PARIS,48.8694370761, 2.40539657538,
16024,16024 - KENNEDY RANELAGH,4 RUE RANELAGH DEVANT RER - 75016 PARIS,48.8529331605, 2.28043971999,
14025,14025 - JACQUIER,10 RUE JACQUIER - 75014 PARIS,48.8295704047, 2.31835302141,
8010,08010 - LIEGE,22 RUE DE LIEGE - 75008 PARIS,48.8795811656, 2.32642735247,
43003,43003 - PARIS 2 (VINCENNES),104 AVENUE DE PARIS - 94300 VINCENNES,48.8457199009, 2.42740630276,
21103,21103 - HUGO (CLICHY),94-98 BOULEVARD VICTOR HUGO - 92110 CLICHY,48.9014601568, 2.31712992066,
13013,13013 - SAINT MARCEL,3 BD SAINT MARCEL - 75013 PARIS,48.8395044246, 2.36098941702,
32001,32001 - PROUDHON (SAINT DENIS),AVENUE PRESIDENT WILSON / RUE PROUDHON - 93200 SAINT DENIS,48.9064693732, 2.35844205395,
43002,43002 - LAGNY (VINCENNES),1 BIS RUE DE LAGNY - 94300 VINCENNES,48.848879019, 2.42619842213,
42004,42004 - WESTERMEYER - QUAIS D'IVRY (IVRY),FACE AU 5 RUE WESTERMEYER ET 30 BD PAUL VAILLANT COUTURIER -  94200 IVRY SUR SEINE,48.8190295, 2.396602,
8053,08053 - FRIEDLAND,PLACE GEORGES GUILLAUMIN - 75008 PARIS,48.874750204, 2.30177143533,
32004,32004 - BAILLY (SAINT DENIS),AVENUE DU PRESIDENT WILSON/ RUE DE BAILLY - 93200 SAINT DENIS,48.9151986424, 2.35750068369,
31001,31001 - LAGNY (MONTREUIL),96 RUE DE LAGNY - 93100 MONTREUIL,48.8492303009, 2.42142994001,
10022,10022 - CHABROL SAINT QUENTIN,FACE 124 RUE DU FAUBOURG SAINT DENIS - 75010 PARIS,48.8768669058, 2.35611908299,
19040,19040 - TELEGRAPHE,265 RUE DE BELLEVILLE - 75019 PARIS,48.8756361807, 2.39946145198,
14021,14021 - PLACE DE LA PORTE DE CHATILLON,BOULEVARD BRUNE PORTE DE CHATILLON - 75014 PARIS,48.8244897025, 2.31844743105,
13114,13114 - NATIONALE DUCHAMP (PROP 1),46 RUE NATIONALE - 75013 PARIS,48.8248108408, 2.36773548985,
10020,10020 - CHABROL,59 RUE CHABROL - 75010 PARIS,48.8771003511, 2.35122216805,
16015,16015 - RUE DE BASSANO,1 RUE DE BASSANO - 75016 PARIS,48.8681445105, 2.29614960099,
18112,18112 - HÔPITAL BICHAT,2 RUE ARTHUR RANC - 75018 PARIS,48.8980143432, 2.33365337616,
19005,19005 - RIQUET,56 AVENUE DE FLANDRE - 75019 PARIS,48.8880132814, 2.37375959552,
14124,14124 - PORTE D'ARCUEIL,AVENUE DAVID WEIL - 75014 PARIS,48.8211117705, 2.33378529043,
42009,42009 - VERDUN (IVRY),157-165 AVENUE DE VERDUN - 94200 IVRY,48.8072592806, 2.37513019905,
34008,34008 - GARIBALDI (SAINT OUEN),FACE AU 4 AVENUE GARIBALDI / AVENUE GABRIEL PERI - 93400 SAINT OUEN,48.9057350761, 2.33149745979,
20104,20104 - RUE LOUIS LUMIÈRE,68 RUE LOUIS LUMIERE - 75020 PARIS,48.8621619807, 2.41112578186,
5106,05106 - CUJAS,22 RUE CUJAS - 75005 PARIS,48.8481913486, 2.34183165485,
8041,08041 - CHAMPS ELYSEES LINCOLN,16 RUE DE LINCOLN - 75008 PARIS,48.8706901579, 2.30322242397,
4011,04011 - PLACE DU BATAILLON FRANCAIS DE L'ONU,FACE 18 RUE DE L'HOTEL DE VILLE - 75004 PARIS,48.8538141453, 2.35709265436,
31005,31005 - PARIS 2  (MONTREUIL),127/129 RUE DE PARIS - 93100 MONTREUIL,48.8562845162, 2.42643449061,
15044,15044 - J DUPRE,65 RUE DANTZIG - 75015 PARIS,48.8302693903, 2.29600807609,
32604,32604 - KOCK (LES LILAS),FACE 3 AVENUE PAUL DE KOCK - 93260 LES LILAS,48.8812154273, 2.42020915533,
15002,15002 - BOURDELLE,26 AVENUE DU MAINE - 75015 PARIS,48.8430853175, 2.32026394678,
15068,15068 - BOULEVARD VICTOR,FACE 5 BOULEVARD MARTIAL VALIN - 75015 PARIS,48.8381713102, 2.27033837975,
21001,21001 - TRANSVAL (BOULOGNE-BILLANCOURT),11 RUE DU TRANSVAL - 92100 BOULOGNE-BILLANCOURT,48.8482998095, 2.23757011021,
5023,05023 - PLACE JUSSIEU,13 RUE JUSSIEU - 75005 PARIS,48.8456168785, 2.3557455,
22003,22003 - BEFFROY (NEUILLY),3 RUE BEFFROY - 92200 NEUILLY,48.8867049831, 2.26126351803,
13102,13102 - LA PITIE-SALPETRIERE,47-83 BOULEVARD DE L'HOPITAL (Allée de la grille) - 75013 PARIS,48.83742, 2.36506,
15126,15126 - RENAN,Avenue ERNEST RENAN / PARC DES EXPOSITIONS - 75015 PARIS,48.8311001873, 2.28538759483,
16039,16039 - VERSAILLES EXELMANS,27 BOULEVARD EXELMANS - 75016 PARIS,48.8409629526, 2.26439411808,
7019,07019 - ECOLE MILITAIRE,85 AVENUE BOSQUET - 75007 PARIS,48.854951168, 2.3054786342,
33010,33010 - HUGO (AUBERVILLIERS),161 AVENUE VICTOR HUGO - 93300 AUBERVILLIERS,48.9111048097, 2.3791437423,
16014,16014 - AVENUE D EYLAU,4 AVENUE D'EYLAU - 75016 PARIS,48.8635464034, 2.28639449693,
22402,22402 - JAURES (MALAKOFF),10 AVENUE JEAN JAURES - 92240 MALAKOFF,48.8214600798, 2.30289945997,
12009,12009 - DIDEROT,FACE 124 RUE DE CHARENTON - 75012 PARIS,48.8462687898, 2.37926432509,
1025,01025 - TEMPLE DE L'ORATOIRE,2 RUE DE L'ORATOIRE - 75001 PARIS,48.8613894683, 2.34005523282,
12040,12040 - PORTE DE CHARENTON,FACE 2 AV. DE LA PORTE DE CHARENTON - 75012 PARIS,48.8315881252, 2.39874566495,
8009,08009 - SAINT LAZARE RER,1 RUE DE L'ISLY - 75008 PARIS,48.874808025, 2.32648148622,
17102,17102 - ALFRED ROLL,14 RUE ALFRED ROLL - 75017 PARIS,48.8878494938, 2.30003439798,
4104,04104 - SEBASTOPOL RAMBUTEAU,FACE 40 BOULEVARD SEBASTOPOL - 75004 PARIS,48.8618831022, 2.3502209761,
12008,12008 - HECTOR MALOT,15 BIS RUE HECTOR MALOT - 75012 PARIS,48.8468151323, 2.37692936059,
8040,08040 - CHAMPS ELYSEES CHARRON,65 RUE PIERRE CHARRON - 75008 PARIS,48.8700703391, 2.30431544672,
2004,02004 - REAUMUR MONTORGUEIL,83 ALLEE PIERRE LAZAREF - 75002 PARIS,48.8669737142, 2.34863246544,
7008,07008 - SOLFERINO,10 RUE DE VILLERSEXEL - 75007 PARIS,48.8583186469, 2.32383843779,
18109,18109 - RIQUET PAJOL,55 RUE PAJOL - 75018 PARIS,48.8895969709, 2.36285360426,
20038,20038 - LEON FRAPIE,6 RUE LEON FRAPIE - 75020 PARIS,48.8735490351, 2.41100303588,
10115,10115 - DODU,1 - 3 RUE DES ECLUSES SAINT MARTIN - 75010 PARIS,48.8761373391, 2.36808449794,
15058,15058 - GEORGES POMPIDOU,4 PLACE DU MOULIN DE JAVEL - 75015 PARIS,48.8400944467, 2.27158991199,
16009,16009 - SAINT DIDIER,32 RUE SAINT DIDIER - 75016 PARIS,48.8664391603, 2.2857459443,
7102,07102 - SAINTE CLOTHILDE,FACE 19 RUE CASIMIR PERIER - 75007 PARIS,48.8578291107, 2.31914905258,
16112,16112 - CHERNOVITZ,1-3 RUE CHERNOVITZ - 75016 PARIS,48.8569864146, 2.28217321814,
42003,42003 - INSURRECTION AOUT 1944 (IVRY),2 PLACE DE L'INSURRECTION AOUT 1944 - 94200 IVRY SUR SEINE,48.8146600822, 2.39826154064,
4101,04101 - BASTILLE,11 RUE DE LA BASTILLE - 75004 PARIS,48.853797345, 2.36840080696,
15112,15112 - FALGUIÈRE LEBRUN,19 RUE VIGEE LEBRUN - 75015 PARIS,48.8387588135, 2.3109360795,
8032,08032 - MATIGNON,27 AVENUE MATIGNON - 75008 PARIS,48.8714764213, 2.31388541995,
2108,02108 - VIVIENNE,42 RUE VIVIENNE - 75002 PARIS,48.8712422742, 2.34139499926,
8044,08044 - VAN DYCK,2 RUE ALFRED DE VIGNY - 75008 PARIS,48.8783613836, 2.30525444822,
31010,31010 - STALINGRAD (MONTREUIL),67-69 RUE DE STALINGRAD - 93100 MONTREUIL,48.8568111231, 2.44498742534,
18049,18049 - PTE D'AUBERVILLIERS,3-5 BOULEVARD NEY - 75018 PARIS,48.8984521733, 2.36960946334,
35013,35013 - TELL (PANTIN),1 RUE GUILLAUME TELL / FACE AU 64 BENJAMIN DELESSERT- 93500 PANTIN,48.88948842, 2.41984896873,
21701,21701 - LARMEROUX (VANVES),FACE 5 BIS RUE LARMEROUX - 92170 VANVES,48.8169399113, 2.28098948048,
6007,06007 - VAVIN,18 RUE BREA - 75006 PARIS,48.8427384783, 2.32979422176,
11028,11028 - BLUETS REPUBLIQUE,FACE 20 RUE GUILLAUME BERTRAND - 75011 PARIS,48.8638251743, 2.38090637715,
19024,19024 - BUTTES CHAUMONT,28 / 30 RUE BOTZARIS - 75019 PARIS,48.8779512536, 2.38146466288,
21108,21108 - VILLENEUVE 2 (CLICHY),6-8 RUE VILLENEUVE - 92110 CLICHY,48.9036210122, 2.30622856573,
23003,23003 - WILSON (LEVALLOIS),132 RUE DU PRESIDENT WILSON - 92300 LEVALLOIS,48.8983400023, 2.28508993358,
14020,14020 - PORTE DE MONTROUGE,AV. DE LA PORTE DE MONTROUGE - 75014 PARIS,48.8212167897, 2.32117350214,
20503,20503 - COURS DE VINCENNES PYRÉNÉES,1 RUE DES PYRENEES - 75020 PARIS,48.847724969, 2.40590731702,
31709,31709 - MARCEL (BAGNOLET),FACE AU 184 RUE ETIENNE MARCEL - 93170 BAGNOLET,48.8570503947, 2.42254995671,
9021,09021 - SAINT GEORGES,56 RUE SAINT GEORGES - 75009 PARIS,48.8778722783, 2.3374468042,
14113,14113 - ARAGO 2,36 RUE DE LA SANTE - 75014 PARIS,48.835128865, 2.34157863456,
19038,19038 - JOURDAIN,9 RUE LASSUS - 75019 PARIS,48.8755503948, 2.38903816085,
9019,09019 - VICTOR MASSE,38 RUE VICTOR MASSE - 75009 PARIS,48.881149034, 2.3366810043,
13026,13026 - PLACE HENOCQUE VERSION 2,21 RUE DU DR LERAY ET LANDOUZY - 75013 PARIS,48.8233161722, 2.35433694417,
42504,42504 - MALON (GENTILLY),FACE 59 RUE BENOIT MALON - 94250 GENTILLY,48.8144401796, 2.34107065417,
13050,13050 - QUAI PANHARD ET LEVASSOR,23 QUAI PANHARD ET LEVASSOR - 75013 PARIS,48.8283698938, 2.3844403546,
15042,15042 - FARMAN,61 RUE HENRY FARMAN - 75015 PARIS,48.8337338302, 2.27139647246,
13047,13047 - BOUTROUX VITRY,1 AVENUE BOUTROUX - 75013 PARIS,48.8226328422, 2.37773843366,
11012,11012 - MONTREUIL VOLTAIRE,93 RUE DE MONTREUIL - 75011 PARIS,48.8505070118, 2.39307555827,
8549,08549 - PLACE DUNANT,39 AVENUE GEORGE V - 75008 PARIS,48.8704091351, 2.30112319174,
13022,13022 - BUTTE AUX CAILLES,27 ET 36 RUE DE LA BUTTE AUX CAILLES - 75013 PARIS,48.8275643799, 2.34906350669,
17009,17009 - BODIN AVENUE DE CLICHY,2 RUE PAUL BODIN - 75017 PARIS,48.8926339214, 2.31731325811,
12106,12106 - BARTHES TROYES,3 RUE ROLAND BARTHES - 75012 PARIS,48.8439491758, 2.37908134343,
20119,20119 - SQUARE DE MENILMONTANT,138 RUE DE MENILMONTANT - 75020 PARIS,48.8701364587, 2.39669061288,
20006,20006 - PYRÉNÉES - PLAINE,33 RUE DES PYRENEES - 75020 PARIS,48.8502852806, 2.40629610782,
17033,17033 - CARNOT,8 AVENUE CARNOT - 75017 PARIS,48.8755384211, 2.29373210017,
16022,16022 - RUE JEAN BOLOGNE,16 RUE JEAN BOLOGNE - 75016 PARIS,48.8575668898, 2.28002739531,
18046,18046 - FOURCHE,12 RUE ETIENNE JOGELLE - 75018 PARIS,48.8879401639, 2.32612442031,
20121,20121 - MENILMONTANT BOYER,27 RUE BOYER - 75020 PARIS,48.8689101274, 2.39202048929,
16017,16017 - RUE DE SIAM,1 BIS RUE DE SIAM - 75016 PARIS,48.861720329, 2.27534656856,
16031,16031 - BOULAINVILLIERS,51 RUE DES VIGNES - 75016 PARIS,48.8561507434, 2.27518841467,
17013,17013 - LEGENDRE,62 RUE LEGENDRE - 75017 PARIS,48.8854377309, 2.31647383591,
18034,18034 - LEIBNITZ,50 RUE LEIBNITZ - 75018 PARIS,48.8963283485, 2.33339042383,
35009,35009 - LOLIVE 1 (PANTIN),104 AVENUE LOLIVE - 93500 PANTIN,48.8921394093, 2.4091077377,
21211,21211 - MARNE (MONTROUGE),100 AVENUE DE LA MARNE - 92120 MONTROUGE,48.8117498213, 2.30316988763,
8102,08102 - LAMENAIS WASHINGTON,1 RUE LAMENNAIS - 75008 PARIS,48.8735553345, 2.30328866613,
17037,17037 - BAYEN PEREIRE,40 RUE BAYEN - 75017 PARIS,48.8818307175, 2.29214066583,
20115,20115 - PORTE DE BAGNOLET,102 RUE LOUIS LUMIERE - 75020 PARIS,48.8644236486, 2.41041111584,
8049,08049 - DUNANT,42 AVENUE GEORGE V - 75008 PARIS,48.8704378054, 2.30083026142,
14023,14023 - MALAKOFF PINARD,76-78 BOULEVARD ADOLPHE PINARD - 75014 PARIS,48.8236534803, 2.30776682559,
12018,12018 - SAINT MANDE - FAVRE,5 AVENUE SAINT MANDE - 75012 PARIS,48.8456092497, 2.39593262721,
3006,03006 - MAIRIE DU 3EME,10 RUE PERREE - 75003 PARIS,48.8645308053, 2.36157981521,
42011,42011 - MARCEL BOYER (IVRY),26, Quai Marcel Boyer / rue Victor Hugo - 94200 IVRY,48.8225048,2017-04-08T18:25:27+02:00
21209,21209 - GEORGES MESSIER (MONTROUGE),35 RUE MOLIERE - 92120 MONTROUGE,48.8111018378, 2.31462974778,
12108,12108 - BERCY,FACE AU N°16 BOULEVARD DE BERCY - 75012 PARIS,48.84002, 2.37862,
15012,15012 - MADEMOISELLE,76 RUE CAMBRONNE - 75015 PARIS,48.84327733, 2.30230766886,
21706,21706 - BLEUZEN (VANVES),74 RUE JEAN BLEUZEN - 92170 VANVES,48.8233032341, 2.29650634355,
19008,19008 - CORENTIN CARIOU,177 AVENUE DE FLANDRE - 75019 PARIS,48.89465025, 2.38186872951,
20026,20026 - PELLEPORT,121 AVENUE GAMBETTA - 75020 PARIS,48.867925154, 2.40097662355,
5105,05105 - GEOFFROY SAINT HILAIRE,8 RUE GEOFFROY SAINT HILAIRE - 75005 PARIS,48.8390782642, 2.35687734067,
16011,16011 - VICTOR HUGO RUE DE LA POMPE,118 AVENUE VICTOR HUGO - 75016 PARIS,48.8681088869, 2.28147752242,
9028,09028 - MONCEY BLANCHE,4 RUE MONCEY - 75009 PARIS,48.8801539859, 2.33107516002,
18103,18103 - CHARLES HERMITE,45 RUE CHARLES HERMITE - 75018 PARIS,48.8989027534, 2.36473249417,
22007,22007 - CHARCOT (NEUILLY),35-37 BOULEVARD DU COMMANDANT CHARCOT - 92200 NEUILLY SUR SEINE,48.8753602839, 2.25569933163,
13006,13006 - SAINT MARCEL JEANNE D'ARC,02 RUE DUMERIL - 75013 PARIS,48.8381516081, 2.35710844956,
9015,09015 - LAMARTINE,43 RUE LAMARTINE - 75009 PARIS,48.8766221204, 2.33979989932,
20004,20004 - PORTE DE VINCENNES BIS,10 RUE DU COMMANDANT L'HERMINIER - 75020 PARIS,48.8470644175, 2.41602296002,
19108,19108 - ROSA PARKS – GASTON TESSIER,12 Rue Gaston Tessier - 75019 PARIS,48.8960206, 2.3739464,
13020,13020 - MENDES FRANCE,FACE 15 RUE PAUL KLEE - 75013 PARIS,48.8390842183, 2.37053233099,
31013,31013 - CENTENAIRE (MONTREUIL),8 RUE DU CENTENAIRE - 93100 MONTREUIL,48.8584596543, 2.42739031072,
13514,13514 - GARE D'AUSTERLITZ 2,9 BOULEVARD DE L'HOPITAL - 75013 PARIS,48.8418361736, 2.36346863686,
41101,41101 - DOUMER (ARCUEIL),FACE AU 11 AVENUE PAUL DOUMER - 94110 ARCUEIL,48.8063800103, 2.33671040255,
22407,22407 - BARBUSSE (MALAKOFF),ROND POINT HENRI BARBUSSE - 92240 MALAKOFF,48.8146796589, 2.28740045741,
14008,14008 - MOUTON DUVERNET,5 RUE MOUTON DUVERNET - 75014 PARIS,48.8315066757, 2.32931936322,
17042,17042 - PORTE MAILLOT,FACE 279 BOULEVARD PEREIRE - 75017 PARIS,48.8777500334, 2.28444435655,
13035,13035 - IVRY TOLBIAC,116 AVENUE DE CHOISY - 75013 PARIS,48.8259701364, 2.36023184076,
20048,20048 - BAGNOLET,110 RUE DE BAGNOLET - 75020 PARIS,48.8597776445, 2.40344426132,
15045,15045 - PLAINE,AVENUE DE LA PORTE DE LA PLAINE - 75015 PARIS,48.8281749364, 2.29258752255,
17104,17104 - GENERAL KOENIG,2 BOULEVARD AURELLE DE PALADINES - 75017 PARIS,48.8817256597, 2.28368266167,
10041,10041 - CHARTRES (18 ARR.),FACE 39 BOULEVARD DE LA CHAPELLE - 75010 PARIS,48.884141194, 2.35610946588,
20118,20118 - ORTEAUX MOURAUD,100 RUE DES ORTEAUX - 75020 PARIS,48.8555864285, 2.40876290776,
1008,01008 - COQUILLIERE - LOUVRE,9 RUE COQUILLIERE 75001 PARIS,48.863575, 2.3426385,
16021,16021 - RUE FRANCOIS PONSARD,1 RUE FRANCOIS PONSARD - 75016 PARIS,48.8584276966, 2.27430852414,
13110,13110 - MOULIN DE LA POINTE,66 RUE DU MOULIN DE LA POINTE - 75013 PARIS,48.821039287, 2.35634514417,
19121,19121 - BELLEVILLE PRE SAINT GERVAIS,195 RUE DE BELLEVILLE - 75019 PARIS,48.8755180686, 2.39296078728,
20015,20015 - BAGNOLET-ORTEAUX,44 BIS RUE DE BAGNOLET - 75020 PARIS,48.8571433921, 2.398472,
9020,09020 - TOUDOUZE CLAUZEL,FACE 27 RUE CLAUZEL - 75009 PARIS,48.8795052656, 2.33719063927,
21703,21703 - MARTINIE (VANVES),5-7 AVENUE MARCEL MARTINIE - 92170 VANVES,48.8210499235, 2.29130063072,
8055,08055 - TERNES COURCELLES,87 BD COURCELLES - 75008 PARIS,48.8781888764, 2.29929600386,
21101,21101 - VALITON (CLICHY),4 RUE DE VALITON - 92110 CLICHY,48.9024924515, 2.29784000737,
13023,13023 - BOBILLOT VERLAINE,30 RUE BOBILLOT - 75013 PARIS,48.8286028908, 2.35303458295,
33009,33009 - FELIX (AUBERVILLIERS),120 BOULEVARD FELIX FAURE - 93300 AUBERVILLIERS,48.9078857573, 2.37883847406,
21707,21707 - PASTEUR (VANVES),9 AVENUE PASTEUR ANGLE CARREFOUR ALBERT LEGRIS - 92170 Vanves,48.8250993292, 2.29250033146,
8057,08057 - HOCHE,62 AVENUE HOCHE - 75008 PARIS,48.8749447581, 2.2974385772,
16104,16104 - PAUL VALÉRY,26-32 RUE PAUL VALERY - 75016 PARIS,48.8713610398, 2.28886639604,
16019,16019 - HENRI MARTIN,FACE 98 AV. HENRI MARTIN - 75016 PARIS,48.8630253154, 2.2688065502,
8048,08048 - MARCEAU,45 AVENUE MARCEAU - 75008 PARIS,48.8688517082, 2.2985140488,
15108,15108 - LOURMEL - MARIE SKOBTSOV,84 RUE DE LOURMEL - 75015 PARIS,48.844974, 2.287283,
42503,42503 - LENINE (ARCUEIL/GENTILLY),71 AVENUE VLADIMIR LITCH LENINE - 94110 ARCUEIL,48.8127462, 2.3316847,
10017,10017 - GARE DE L'EST SAINT LAURENT,1 RUE DE LA FIDELITE - 75010 PARIS,48.8745750368, 2.3567967652,
12128,12128 - ROUTE DE LA PYRAMIDE- ECOLE DU BREUIL,Pyramide  (proche rond-point Route de la Ferme) - 75012 PARIS,48.82256, 2.45877,
21009,21009 - LECORBUSIER (BOULOGNE-BILLANCOURT),FACE AU 1 RUE LECORBUSIER - 92100 BOULOGNE-BILLANCOURT,48.8379982953, 2.24084666482,
14107,14107 - PORTE DE MONTROUGE 2,2 AVENUE DE LA PORTE DE MONTROUGE - 75014 PARIS,48.8234163005, 2.32293685711,
15120,15120 - AVIA,26 RUE DU COLONEL PIERRE AVIA - 75015 PARIS,48.8296843301, 2.27534258685,
16018,16018 - FLANDRIN,2 BOULEVARD FLANDRIN - 75016 PARIS,48.8644114095, 2.27244864765,
23004,23004 - COUTURIER 2 (LEVALLOIS),109 RUE  PAUL VAILLANT COUTURIER - 92300 LEVALLOIS,48.8981970226, 2.29384801797,
11030,11030 - SAINT MAUR OBERKAMPF,80 RUE OBERKAMPF - 75011 PARIS,48.8653079842, 2.37601991202,
17021,17021 - WAGRAM (17EME ARR.),RUE JOUFFROY D'ABBANS - 75017 PARIS,48.8842894403, 2.30549744426,
22006,22006 - PIERRET (NEUILLY),33 RUE PIERRET - 92200 NEUILLY SUR SEINE,48.8830266592, 2.26009698393,
21207,21207 - VERDIER (MONTROUGE),AVENUE VERDIER ANGLE AVENUE DE LA REPUBLIQUE - 92120 MONTROUGE,48.8155296337, 2.31702986373,
20122,20122 - DAVOUT VITRUVE,98 RUE VITRUVE - 75020 PARIS,48.860240121, 2.40875842782,
19023,19023 - MANIN SIMON BOLIVAR,FACE 1 RUE MANIN - 75019 PARIS,48.8764996541, 2.3794073626,
19033,19033 - CAMBRAI,30 RUE DE CAMBRAI - 75019 PARIS,48.8959473685, 2.38113380225,
32006,32006 - EGLISE SAINT JUSTE (SAINT DENIS),AVENUE DU PRESIDENT WILSON / PARKING DE L'EGLISE SAINT JUSTE - 93210 SAINT DENIS,48.908586717, 2.35848245779,
20106,20106 - MAIRIE DU 20ÈME,44-46 AVENUE GAMBETTA - 75020 PARIS,48.865352242, 2.39894644808,
13024,13024 - BOBILLOT TOLBIAC,81 RUE BOBILLOT - 75013 PARIS,48.8255258619, 2.35020508497,
9001,09001 - POISSONNIERE,5 RUE DE BELLEFOND - 75009 PARIS,48.8775014653, 2.34856937339,
17101,17101 - ALEXANDRE CHARPENTIER,FACE 3 RUE ALEXANDRE CHARPENTIER - 75017 PARIS,48.8843411247, 2.28827375264,
2002,02002 - MONTORGUEIL ETIENNE MARCEL,32 RUE ETIENNE MARCEL - 75002 PARIS,48.8645823775, 2.34628211167,
8056,08056 - WAGRAM,21 RUE BEAUJON - 75008 PARIS,48.8753776475, 2.29655534248,
23007,23007 - WILSON (LEVALLOIS),22 RUE DU PRESIDENT WILSON - 92300 LEVALLOIS-PERRET,48.8903802654, 2.29216048217,
21203,21203 - BRIAND (MONTROUGE),PLACE JULES FERRY / AVENUE ARISTIDE BRIAND - 92120 MONTROUGE,48.8125109082, 2.32568062304,
5009,05009 - SQUARE VIVIANI,6 RUE DU FOUARRE - 75005 PARIS,48.8516511794, 2.34746333452,
23008,23008 - REPUBLIQUE (LEVALLOIS),PLACE DE LA REPUBLIQUE - 92300 LEVALLOIS,48.8931946754, 2.28891416006,
22008,22008 - DE GAULLE (NEUILLY),153 BIS AVENUE CHARLES DE GAULLE - 92200 NEUILLY SUR SEINE,48.8829516254, 2.26513500874,
41103,41103 - BRIAND (ARCUEIL),AVENUE ARISTIDE BRIAND (CARREFOUR VACHE NOIRE) - 94110 ARCUEIL,48.8104231701, 2.32696976462,
35002,35002 - JAURES 2 (PANTIN),130 RUE JEAN JAURES - 93500 PANTIN,48.9072260127, 2.39612920045,
21702,21702 - BASCH (VANVES),6 AVENUE VICTOR BASCH - 92170 VANVES,48.8189398643, 2.29195987247,
14018,14018 - PORTE D'ORLEANS,6 PLACE DU 25 AOUT 1944 - 75014 PARIS,48.8228575017, 2.32504267092,
41602,41602 - DIGEON (SAINT MANDE),PLACE CHARLES DIGEON - 94160 SAINT MANDE,48.8435469599, 2.41831747657,
21202,21202 - BARBES (MONTROUGE),16 RUE BARBES - 92120 MONTROUGE,48.8172449117, 2.32750599924,
9011,09011 - FOLIES BERGERES,14 RUE GEOFFROY MARIE - 75009 PARIS,48.8737819406, 2.34451387634,
42206,42206 - PARIS 2 (CHARENTON),111 RUE DE PARIS - 94220 CHARENTON,48.8237840897, 2.4100135404,
21210,21210 - PERI 2 (MONTROUGE),8 RUE GABRIEL PERI - 92120 MONTROUGE,48.8178170939, 2.3240312783,
9023,09023 - ITALIENS LAFFITE,1 RUE LAFFITE - 75009 PARIS,48.8718157374, 2.33720154785,
21008,21008 - HUGO (BOULOGNE-BILLANCOURT),74 AVENUE VICTOR HUGO - 92100 BOULOGNE-BILLANCOURT,48.8379233148, 2.24606415154,
41102,41102 - RENAN (ARCUEIL),rue Ernest Renan / angle rue Vaucouleurs (A la sortie du RER B) - 94110 ARCUEIL,48.808800395, 2.33468965466,
42012,42012 - BARBUSSE (IVRY),1 RUE HENRY BARBUSSE - 94200 IVRY,48.810200348, 2.37967058912,
6005,06005 - MONTPARNASSE,40 RUE DU MONTPARNASSE - 75006 PARIS,48.843295457, 2.32654113413,
17048,17048 - TOCQUEVILLE,12 RUE DE TOCQUEVILLE - 75017 PARIS,48.8824022854, 2.31400041122,
16035,16035 - HIPPODROME D AUTEUIL,ALLEE DES FORTIFICATIONS - 75016 PARIS,48.848892821, 2.25765156147,
41604,41604 - LAGNY (SAINT MANDE),126 RUE LAGNY / ANGLE AVENUE JOFFRE - 94160 SAINT MANDE,48.8493118268, 2.41790976904,
14022,14022 - DIDOT-MARINIERS,108 RUE DIDOT - 75014 PARIS,48.826508, 2.31311526,
21107,21107 - SINCHOLLE (CLICHY),RUE BERTRAND SINCHOLLE - 92110 CLICHY,48.899359637, 2.3040405607,
16001,16001 - AVENUE DES PORTUGAIS,2 AVENUE DES PORTUGAIS - 75016 PARIS,48.8712137122, 2.29369213365,
20020,20020 - PYRENEES RENOUVIER,183 RUE DES PYRENEES - 75020 PARIS,48.8609593323, 2.40042185204,
5016,05016 - CONTRESCARPE-THOUIN,1 RUE THOUIN - 75005 PARIS,48.8450622564, 2.34949778986,
9013,09013 - MAIRIE DU 9EME,20 RUE DE LA GRANGE BATELIERE - 75009 PARIS,48.8732671376, 2.34075344805,
19043,19043 - PETITS PONTS,RUE JULES LADOUMEGUE / ANGLE ROUTES DES PETITS PONTS / ANGLE AV. DU GAL. LECLERC - 75019 PARIS,48.893800171, 2.39791036643,
16006,16006 - RUE LAURISTON,60 RUE LAURISTON - 75016 PARIS,48.8692602237, 2.28991872284,
9032,09032 - MATHURINS,12 RUE DES MATHURINS - 75009 PARIS,48.8729712519, 2.3294656117,
20037,20037 - SAINT FARGEAU,177 AVENUE GAMBETTA - 75020 PARIS,48.8712659184, 2.40395075221,
12152,12152 - MICHEL CHASLES - GARE DE LYON,4 au 8 et 7bis, rue Michel Chasles - 75012 PARIS,48.8463755523,2017-04-08T18:27:22+02:00
19124,19124 - ALEXANDER FLEMMING,RUE ALEXANDER FLEMMING - 75019 PARIS,48.8817697939, 2.40317936797,
21503,21503 - LEDRU ROLLIN (SURESNES),13/15 RUE LEDRU ROLLIN - 92150 SURESNES,48.8709204876, 2.22958935221,
31705,31705 - CHAMPEAUX (BAGNOLET),RUE DES CHAMPEAUX (PRES DE LA GARE ROUTIERE) - 93170 BAGNOLET,48.864527821, 2.41617072443,
6006,06006 - NOTRE DAME DES CHAMPS,41 RUE NOTRE DAME DES CHAMPS - 75006 PARIS,48.8447992886, 2.32933775589,
5104,05104 - BUFFON,47 RUE BUFFON - 75005 PARIS,48.8419161798, 2.35891268132,
13018,13018 - AURIOL CHEVALERET,1 RUE BRUANT - 75013 PARIS,48.8348484529, 2.36682649963,
6107,06107 - CHERCHE MIDI,29 RUE DU CHERCHE MIDI - 75006 PARIS,48.8502410872, 2.32755154921,
6029,06029 - VAUGIRARD PRINCE,FACE 1 RUE DE VAUGIRARD - 75006 PARIS,48.8489229582, 2.34104050871,
12151,12151 - GARE DE LYON,GARE DE LYON - 75012 PARIS,48.8455150898, 2.37264984463,
13116,13116 - PLACE DU DOCTEUR YERSIN,FACE 5 AVENUE DE LA PORTE D'IVRY - 75013 PARIS,48.8202267926, 2.37220930965,
16030,16030 - MIRABEAU,4 PLACE DE BARCELONE - 75016 PARIS,48.84766571, 2.27355626497,
14111,14111 - DENFERT-ROCHEREAU CASSINI,18 RUE CASSINI - 75014 PARIS,48.8375492922, 2.33598303047,
21113,21113 - PETIT (CLICHY),2 RUE PETIT - 92110 CLICHY,48.8993483538, 2.29662648341,
3007,03007 - ARCHIVES PASTOURELLE,67 RUE DES ARCHIVES - 75003 PARIS,48.8624012119, 2.35944703195,
20110,20110 - PORTE DES LILAS,FACE 241 AVENUE GAMBETTA - 75020 PARIS,48.8754124219, 2.40596033115,
13001,13001 - PORT ROYAL,51 BOULEVARD PORT ROYAL - 75013 PARIS,48.837727921, 2.34466404343,
2101,02101 - BACHAUMONT,14 RUE BACHAUMONT - 75002 PARIS,48.8660671501, 2.3454636527,
10032,10032 - DODU,N° 12-14 RUE CLAUDE VELLEFAUX- 75010 PARIS,48.872859139, 2.37007170699,
14115,14115 - CITÉ UNIVERSITAIRE,AVENUE MAURICE D'OCAGNE - 75014 PARIS,48.8239231685, 2.31657332932,
4009,04009 - VILLAGE SAINT PAUL,6 RUE SAINT PAUL - 75004 PARIS,48.8527259722, 2.36087834343,
16034,16034 - PORTE D'AUTEUIL,76 RUE D'AUTEUIL - 75016 PARIS,48.8479502078, 2.26065982614,
13121,13121 - BRUNESEAU - QUAI D'IVRY,5 RUE BRUNESEAU - 75013 PARIS,48.8249528729, 2.38858067885,
14027,14027 - ALESIA GERGOVIE,FACE 83 RUE DE GERGOVIE - 75014 PARIS,48.8308871746, 2.31888210121,
13106,13106 - BOBILLOT MERY,17 RUE BOBILLOT - 75013 PARIS,48.8298753727, 2.35424653463,
8016,08016 - SQUARE LOUIS XVI,DEV 32 RUE PASQUIER - 75008 PARIS,48.873204401, 2.32365883074,
19035,19035 - PORTE CHAUMONT,RUE SIGMUND FREUD / PORTE CHAUMONT - 75019 PARIS,48.8857332999, 2.39784641538,
20035,20035 - PYRENEES,262 RUE DES PYRENEES - 75020 PARIS,48.8694128912, 2.39503998122,
19101,19101 - SIMON BOLIVAR,36 AVENUE SIMON BOLIVAR - 75019 PARIS,48.8750704041, 2.38259171498,
17044,17044 - PORTE DE SAINT OUEN,1 AVENUE DE LA PORTE DE SAINT OUEN - 75017 PARIS,48.8979224085, 2.32851451022,
15034,15034 - COMMERCE,2 RUE LAKANAL - 75015 PARIS,48.8444259195, 2.29404143328,
13111,13111 - CIMETIERE DE GENTILLY,RUE DE LA POTERNE DES PEUPLIERS - 75013 PARIS,48.8185744158, 2.35326018374,
42008,42008 - CASANOVA (IVRY),128 AVENUE DANIEL CASANOVA - 94200 IVRY,48.8142062848, 2.38420701356,
19031,19031 - MANIN CRIMEE,8 RUE MANIN - 75019 PARIS,48.8830298393, 2.38634884002,
23010,23010 - VOLTAIRE (LEVALLOIS),47 RUE VOLTAIRE - 92300 LEVALLOIS-PERRET,48.891962329, 2.28420499011,
9017,09017 - TRUDAINE MARTYRS,01 RUE LALLIER - 75009 PARIS,48.881032149, 2.34077441212,
20042,20042 - PYRENEES ERMITAGE,300 RUE DES PYRENEES - 75020 PARIS,48.8721573799, 2.39173917378,
20039,20039 - COURONNES,44 BOULEVARD DE BELLEVILLE - 75020 PARIS,48.8689406429, 2.3812826011,
13055,13055 - LAGROUA,18 RUE MARIE ANDREE LAGROUA - 75013 PARIS,48.8285952839, 2.38022060627,
20029,20029 - PORTE DES LILAS,57 RUE DES FRERES FLAVIEN - 75020 PARIS,48.8780992764, 2.41104629853,
5008,05008 - ST GERMAIN-DANTE,9 RUE DE DANTE - 75005 PARIS,48.8509772298, 2.34607682591,
6021,06021 - BONAPARTE BEAUX ARTS,17 RUE DES BEAUX ARTS - 75006 PARIS,48.8564374097, 2.33479762295,
6027,06027 - VAUGIRARD DESGOFFE,2 RUE BLAISE DESGOFFE - 75006 PARIS,48.8461298915, 2.32424057814,
20044,20044 - DAVOUT VOLGA,63 BOULEVARD DAVOUT / ANGLE 84 RUE VOLGA 75020 PARIS,48.85291968, 2.41052290978,
13042,13042 - NATIONALE BACH,150 RUE NATIONALE - 75013 PARIS,48.8309574641, 2.36410705325,
10012,10012 - VINAIGRIERS,58 RUE DES VINAIGRIERS - 75010 PARIS,48.8732678412, 2.35932361343,
15051,15051 - ROLLET,1 PLACE HENRI ROLLET - 75015 PARIS,48.8359810045, 2.29346711913,
8012,08012 - CLICHY,10 BOULEVARD DES BATIGNOLLES SUR TPC - 75008 PARIS,48.8833180444, 2.32620717539,
14031,14031 - DIDOT CHATEAU,13 RUE DIDOT - 75014 PARIS,48.8337, 2.3215,
20117,20117 - SAINT FARGEAU MORTIER,72 RUE SAINT-FARGEAU - 75020 PARIS,48.872747269, 2.4082034543,
2010,02010 - BOULEVARD MONTMARTRE,21 RUE D'UZES - 75002 PARIS,48.8707757573, 2.34316333439,
9027,09027 - FONTAINE DOUAI,24 RUE DE DOUAI - 75009 PARIS,48.8823532598, 2.33326337275,
17105,17105 - PALADINES,18 BOULEVARD D'AURELLE DE PALADINES - 75017 PARIS,48.8834980819, 2.28201558963,
17040,17040 - TERNES PEREIRE,227 BOULEVARD PEREIRE SUR TPC - 75017 PARIS,48.8798132183, 2.28795645234,
41203,41203 - STALINGRAD (FONTENAY SOUS BOIS),14 AVENUE STALINGRAD - 94120 FONTENAY SOUS BOIS,48.8501252321, 2.45552917211,
34011,34011 - DHALENNE (SAINT OUEN),FACE AU 61 RUE ALBERT DHALENNE - 93400 SAINT OUEN,48.9141883124, 2.33208283587,
31706,31706 - CHATEAU (BAGNOLET),RUE DU CHATEAU - 93170 BAGNOLET,48.8630254923, 2.41562220418,
15009,15009 - SUFFREN,140 AVENUE DE SUFFREN - 75015 PARIS,48.8471756149, 2.3070521476,
14004,14004 - PORT ROYAL COCHIN,111 BD PORT ROYAL - 75014 PARIS,48.8384318255, 2.34079466687,
8001,08001 - PETIT PALAIS,AV. DUTUIT - 75008 PARIS,48.8668438033, 2.31577971341,
18029,18029 - POTEAU,1 RUE EMILE BLEMONT - 75018 PARIS,48.8945309045, 2.34154133909,
14122,14122 - BRUNE,1 RUE DU COLONEL MONTEIL - 75014 PARIS,48.8265029331, 2.30927479983,
12030,12030 - WATTIGNIES,245 RUE DE CHARENTON - 75012 PARIS,48.8366757964, 2.39179585556,
6013,06013 - JACQUES CALLOT,1 RUE JACQUES CALLOT - 75006 PARIS,48.8552546878, 2.33753933406,
8113,08113 - PLACE ST AUGUSTIN,5 PLACE SAINT AUGUSTIN - 75008 PARIS,48.8749231098, 2.31939514438,
21310,21310 - KLEBER (ISSY LES MOULINEAUX),4 RUE KLEBER - 92130 ISSY LES MOULINEAUX,48.8269297674, 2.27225043196,
15114,15114 - PASTEUR COTENTIN,FACE 1 RUE DU COTENTIN - 75015 PARIS,48.83893691, 2.31616841206,
11013,11013 - NATION VOLTAIRE,5 PLACE DE LA NATION - 75011 PARIS,48.8492766382, 2.39493447775,
19017,19017 - PARC DE LA VILLETTE,197 AVENUE JEAN JAURES - 75019 PARIS,48.888368942, 2.39099165938,
12003,12003 - QUAI DE LA RAPEE,FACE 98 QUAI DE LA RAPEE - 75012 PARIS,48.8458869464, 2.36689679377,
12010,12010 - MICHEL BIZOT,251 AVENUE DAUMESNIL - 75012 PARIS,48.8374904465, 2.4018255858,
5034,05034 - CENSIER,21 RUE CENSIER - 75005 PARIS,48.8405086637, 2.35371355203,
22002,22002 - ARGENSON (NEUILLY),44 BOULEVARD D'ARGENSON - 92200 NEUILLY,48.8886487736, 2.26390460269,
9037,09037 - CLICHY PARME,01 RUE DE PARME - 75009 PARIS,48.8812664242, 2.32819709345,
10039,10039 - SAMBRE ET MEUSE,37 RUE SAMBRE ET MEUSE - 75010 PARIS,48.8744056662, 2.373807238,
15048,15048 - OLIVIER DE SERRE,PLACE AMEDEE GIORDANI - 75015 PARIS,48.8305456694, 2.2920463967,
42007,42007 - PIERRE ET MARIE CURIE (IVRY),Angle Avenue de Verdun et rue Pierre et Marie Curie - 94200 IVRY,48.8128905615, 2.37065026342,
8028,08028 - HOUSSAYE,1 RUE ARSENE HOUSSAYE - 75008 PARIS,48.8734340814, 2.29770677798,
22010,22010 - DE GAULLE 4 (NEUILLY),72 AVENUE CHARLES DE GAULLE - 92200 NEUILLY SUR SEINE,48.881674446, 2.27117749892,
12035,12035 - MADAGASCAR,4 RUE DE MADAGASCAR - 75012 PARIS,48.8347058597, 2.39711155265,
16007,16007 - LONGCHAMP,4 RUE DE LONGCHAMP - 75016 PARIS,48.8649104486, 2.292519101,
34007,34007 - ROSIERS (SAINT OUEN),43-45 RUE BLANQUI / RUE DES ROSIERS - 93400 SAINT OUEN,48.9053622514, 2.3373896485,
16116,16116 - GEORGES SAND,23 rue Georges Sand - 75016 PARIS,48.8498691876, 2.26825738753,
21309,21309 - CRESSON 2 (ISSY LES MOULINEAUX),1 BIS AVENUE VICTOR CRESSON - 92130 ISSY LES MOULINEAUX,48.8237184777, 2.27225445406,
904,00904 -17/19 PLACE JOFFRE / ECOLE MILITAIRE,ECOLE MILITAIRE-AVENUE DE LA MOTTE PICQUET - 75007 PARIS,48.8521809, 2.3019186,
35010,35010 - GERVAIS (PANTIN),1-3 RUE DU PRE SAINT GERVAIS - 93500 PANTIN,48.8910789763, 2.40277551969,
43010,43010 - JARRY (VINCENNES),139 RUE DE LA JARRY - 94300 VINCENNES,48.849744957, 2.45196030631,
10038,10038 - COLONEL FABIEN,69 RUE DE LA GRANGE AUX BELLES - 75010 PARIS,48.8775200285, 2.36979124508,
20024,20024 - GAMBETTA - PÈRE LACHAISE,11 RUE MALTE BRUN - 75020 PARIS,48.8642956962, 2.39822866728,
6018,06018 - MICHELET ASSAS,13 RUE MICHELET - 75006 PARIS,48.842540966, 2.33506788557,
14120,14120 - JOURDAN BARBOUX,7 RUE HENRI BARBOUX - 75014 PARIS,48.8219553065, 2.32680686991,
43006,43006 - MINIMES (VINCENNES),30 AVENUE DES MINIMES - 94300 VINCENNES,48.8414868563, 2.43079345113,
14029,14029 - GERGOVIE VERCINGETORIX,112 RUE VERCINGETORIX - 75014 PARIS,48.8342592499, 2.31339164711,
5013,05013 - ULM ERASME,13 RUE ERASME - 75005 PARIS,48.8425479497, 2.34459664993,
33012,33012 - LANDY (AUBERVILLIERS),FACE 2 RUE DU LANDY - 93300 AUBERVILLIERS,48.9151561828, 2.37642400951,
7004,07004 - RASPAIL VARENNE,FACE 28 BOULEVARD RASPAIL - 75007 PARIS,48.8532616686, 2.32631980638,
20032,20032 - AMANDIERS,55 RUE DES CENDRIERS - 75020 PARIS,48.866295106, 2.38935041243,
10024,10024 - BUISSON SAINT LOUIS,2 RUE DU BUISSON SAINT LOUIS - 75010 PARIS,48.8718258899, 2.37220322486,
32605,32605 - HORTENSIAS (LES LILAS),1 ALLEE DES HORTENSIAS - 93260 LES LILAS,48.8821730942, 2.42327263606,
9108,09108 - ROCHECHOUART MAUBEUGE,25 RUE DE ROCHECHOUART - 75009 PARIS,48.877890015, 2.34478560299,
13009,13009 - BLANQUI CORVISART,46 BOULEVARD AUGUSTE BLANQUI - 75013 PARIS,48.8299837107, 2.35040358782,
14001,14001 - EDGAR QUINET,13 BOULEVARD EDGAR QUINET - 75014 PARIS,48.8411562165, 2.32444878952,
3009,03009 - TEMPLE 113,76 RUE DU TEMPLE - 75003 PARIS,48.8615811577, 2.35660934144,
14104,14104 - LOSSERAND BOYER-BARRET,4 RUE BOYER BARRET - 75014 PARIS,48.833139, 2.317377,
12012,12012 - REUILLY DIDEROT,71 BOULEVARD DIDEROT - 75012 PARIS,48.8472963106, 2.38570767222,
32602,32602 - POULMARCH (LES LILAS),7 RUE JEAN POULMARCH - 93260 LES LILAS,48.8794000532, 2.41616066183,
17028,17028 - PORTE DE COURCELLE,34 BOULEVARD DE REIMS - 75017 PARIS,48.8888000206, 2.29631993184,
18101,18101 - CHAMPIONNET,32 RUE CHAMPIONNET - 75018 PARIS,48.8954703704, 2.34986545092,
14110,14110 - ABBE CARTON,89 RUE DE L'ABBE CARTON - 75014 PARIS,48.8277462661, 2.32071409809,
19011,19011 - ROUVET DAMPIERRE,2 RUE ROUVET - 75019 PARIS,48.89338005, 2.3849997569,
31004,31004 - PARIS 2 (MONTREUIL),175/179 RUE DE PARIS - 93100 MONTREUIL,48.8555013129, 2.42205573361,
16130,16130 - BOIS DE BOULOGNE / PORTE DE LA MUETTE 2,AVENUE LOUIS BARTHOU / PLACE DE LA COLOMBIE - 75016 PARIS,48.863757931, 2.26750468357,
13118,13118 - PATAY REGNAULT,36-38 RUE REGNAULT - 75013 PARIS,48.8243428569, 2.37606009169,
21110,21110 - VILLENEUVE (CLICHY),FACE 51 RUE VILLENEUVE - 92110 CLICHY,48.9055031145, 2.31082038171,
5107,05107 - PONTOISE,1 RUE DE PONTOISE - 75005 PARIS,48.8504580092, 2.35245427549,
8103,08103 - D'ARTOIS BERRY,31 RUE D'ARTOIS - 75008 PARIS,48.8737943184, 2.30629955027,
43004,43004 - MONTREUIL (VINCENNES),43 RUE DE MONTREUIL - 94300 VINCENNES,48.8504183668, 2.43451378622,
2009,02009 - BOURSE,1 RUE DES FILLES SAINT THOMAS - 75002 PARIS,48.8688516894, 2.33973140109,
8036,08036 - RIO,39 RUE DE LISBONNE - 75008 PARIS,48.8774556768, 2.30969422142,
20041,20041 - BELLEVILLE,116 BD DE BELLEVILLE - 75020 PARIS,48.8711994314, 2.37799433829,
20103,20103 - LE VAU BERTEAUX,24 RUE LE VAU - 75020 PARIS,48.8680343904, 2.41103061245,
19020,19020 - MANIN HAUTPOUL,4-6 RUE GOUBET - 75019 PARIS,48.8846620656, 2.39020968745,
11016,11016 - PHILIPPE AUGUSTE,5 RUE DU PASSAGE PHILIPPE AUGUSTE - 75011 PARIS,48.8518182, 2.39325537631,
19102,19102 - BELLEVILLE RAMPAL,4 RUE DE RAMPAL - 75019 PARIS,48.8731526239, 2.37985561063,
21705,21705 - HUGO (VANVES),11 AVENUE VICTOR HUGO - 92170 VANVES,48.8235996443, 2.28881972951,
42016,42016 - CURIE (IVRY),1 BIS RUE PIERRE ET MARIE CURIE - 94200 IVRY,48.8158473928, 2.37694379547,
17038,17038 - ARGENTINE,42 AVENUE DE LA GRANDE ARMEE - 75017 PARIS,48.8761743895, 2.28824740509,
8110,08110 - STOCKOLM ROME,6 RUE DE STOCKOLM - 75008 PARIS,48.8771119188, 2.32232932087,
13032,13032 - MASSENA,163 AVENUE D'ITALIE - 75013 PARIS,48.8198946181, 2.35943293847,
11104,11104 - CHARONNE DU BUREAU,170 RUE DE CHARONNE - 75011 PARIS,48.8559437796, 2.39253252663,
21502,21502 - VERDUN (SURESNES),18 BIS RUE DE VERDUN / COUR MADELAINE - 92150 SURESNES,48.8710030415, 2.22747747677,
17027,17027 - PEREIRE LEVALLOIS,121 BOULEVARD PEREIRE - 75017 PARIS,48.8852633137, 2.2982864668,
33013,33013 - RECHAUSSIERE (AUBERVILLIERS),52 RUE LEOPOLD RECHOSSIERE - 93300 AUBERVILLIERS,48.9145061128, 2.39105149688,
19034,19034 - PANTIN,20 AVENUE DE LA PORTE DE PANTIN - 75019 PARIS,48.8903419552, 2.39781364219,
7011,07011 - ST DOMINIQUE,30 BIS RUE LAS CASES - 75007 PARIS,48.859068395, 2.31862422113,
31003,31003 - PARIS (MONTREUIL),237-241 RUE DE PARIS - 93100 MONTREUIL,48.8549113324, 2.41877242976,
9006,09006 - TRUDAINE ROCHECHOUART,81 RUE DUNKERQUE - 75009 PARIS,48.8821076344, 2.34626199854,
22004,22004 - CHARLES DE GAULLE (NEUILLY),162 AVENUE CHARLES DE GAULLE - 92200 NEUILLY,48.8847072934, 2.26153081999,
8027,08027 - MAIRIE DU 8 ÈME,28 RUE DE MADRID - 75008 PARIS,48.8779840275, 2.31840486278,
21304,21304 - BLUM (ISSY LES MOULINEAUX),FACE 2 PLACE LEON BLUM - 92100 ISSY LES MOULINEAUX,48.8209551079, 2.26073641335,
18039,18039 - EOLE,41 RUE D'AUBERVILLIERS - 75018 PARIS,48.8870212034, 2.36688624824,
14002,14002 - RASPAIL QUINET,FACE 4 BD EDGAR QUINET - 75014 PARIS,48.8391991672, 2.32955509721,
31707,31707 - VAILLANT (BAGNOLET),FACE 70 RUE EDOUARD VAILLANT - 93170 BAGNOLET,48.8583956785, 2.414860628,
6016,06016 - DANTON,11 RUE DANTON - 75006 PARIS,48.8523930093, 2.34144252247,
14012,14012 - SIBELLE ALESIA,FACE 2 AVENUE DE LA SIBELLE - 75014 PARIS,48.8267039412, 2.33863632416,
15106,15106 - GRENELLE VIOLET (PROP3),BOULEVARD DE GRENELLE - 75015 PARIS,48.8499211019, 2.29466057588,
21208,21208 - CARVES (MONTROUGE),67 RUE CARVES ANGLE AVENUE HENRI GINOUX - 92120 MONTROUGE,48.8130809114, 2.31978793669,
31009,31009 - DE GAULLE (MONTREUIL),13/15 PLACE DU GENERAL DE GAULLE - 93100 MONTREUIL,48.8688123639, 2.43297479522,
21704,21704 - REPUBLIQUE (VANVES),2 RUE DE LA REPUBLIQUE - 92170 VANVES,48.8217026999, 2.28539562483,
9003,09003 - PLACE BARBÈS,PLACE BARBES - 75009 PARIS,48.8836531972, 2.34904085503,
17032,17032 - ESPACE CHAMPERRET,12 RUE JEAN OESTREICHER - 75017 PARIS,48.8865709934, 2.28861234498,
9031,09031 - PROVENCE,69 RUE DE PROVENCE - 75009 PARIS,48.8742844754, 2.33297651156,
20034,20034 - SORBIER - MÉNILMONTANT,1 RUE SORBIER - 75020 PARIS,48.8685264711, 2.38979540954,
19103,19103 - MANIN CARRIERES,139 RUE MANIN - 75019 PARIS,48.884770858, 2.3920931199,
3002,03002 - SAINT GILLES,26 RUE SAINT GILLES - 75003 PARIS,48.8581589568, 2.3647149921,
18008,18008 - SQUARE LEON,FACE 36 RUE CAVE - 75018 PARIS,48.8866670264, 2.35321307162,
11018,11018 - SAINT MAUR AVENUE DE LA REPUBLIQUE,87 RUE DE SAINT MAUR - 75011 PARIS,48.8642116747, 2.37825584151,
14114,14114 - PLACE DE CATALOGNE,4 RUE ALAIN - 75014 PARIS,48.8372933094, 2.31748293064,
42208,42208 - PARIS 4 (CHARENTON),178 RUE DE PARIS - 94220 CHARENTON,48.8294214717, 2.40164810556,
21109,21109 - GUICHET (CLICHY),12BIS RUE DU GUICHET - 92110 CLICHY,48.905137004, 2.30250316058,
12014,12014 - NATION,16 PLACE DE LA NATION SUR TPC - 75012 PARIS,48.8473018, 2.39552056486,
12112,12112 - CHARENTON JARDINIER,311-313 RUE DE CHARENTON - 75012 PARIS,48.8338217729, 2.39469266411,
42505,42505 - FREROT (GENTILLY),37 RUE CHARLES FREROT - 94250 GENTILLY,48.815768792, 2.35047619893,
18035,18035 - PORTE MONTMARTRE,FACE 66 RUE RENE BINET - 75018 PARIS,48.8991359901, 2.33689345356,
8050,08050 - BOETIE PONTHIEU,116 RUE DE LA BOETIE - 75008 PARIS,48.8715127415, 2.30748756442,
9024,09024 - LAFAYETTE TAITBOUT,27 RUE TAITBOUT - 75009 PARIS,48.8733858054, 2.33529683977,
21301,21301 - SAINT VINCENT (ISSY LES MOULINEAUX),21 RUE SAINT VINCENT - 92130 ISSY LES MOULINEAUX,48.8194899939, 2.25386941996,
8101,08101 - LONDRES AMSTERDAM,42 RUE DE LONDRES - 75008 PARIS,48.8780344615, 2.32648354097,
42001,42001 - VANZUPPE-PAUL VAILLANT COUTURIER (IVRY),FACE 4 BD PAUL VAILLANT COUTURIER - 94200 IVRY,48.82057, 2.3952015,
14007,14007 - SAINT JACQUES FERRUS,1 RUE FERRUS - 75014 PARIS,48.83136668, 2.34081188215,
17111,17111 - LEMERCIER,109 RUE LEMERCIER - 75017 PARIS,48.8900204961, 2.3175909299,
2021,02021 - CLERY,4 RUE DE CLERY - 75002 PARIS,48.8674674415, 2.34452661511,
16032,16032 - EGLISE D AUTEUIL,PLACE DE L'EGLISE D'AUTEUIL - 75016 PARIS,48.8474984177, 2.26848387135,
18045,18045 - GANNERON,2 RUE PIERRE GINIER - 75018 PARIS,48.8866271486, 2.32629368932,
12125,12125 - PYRAMIDE ENTRÉE PARC FLORAL,PYRAMIDE ENTREE PARC FLORAL - 75012 PARIS,48.8370614929, 2.44044666425,
3010,03010 - BEAUBOURG,46 RUE BEAUBOURG - 75003 PARIS,48.8624649804, 2.35423678142,
12111,12111 - DECAEN CANNEBIERE,73 RUE CLAUDE DECAEN - 75012 PARIS,48.8376141704, 2.3972537822,
18009,18009 - LEPINE,12 RUE JEAN FRANCOIS LEPINE - 75018 PARIS,48.886114668, 2.35685562753,
5007,05007 - ECOLES CARMES,39 RUE DES ECOLES - 75005 PARIS,48.8489190079, 2.34720132952,
9038,09038 - SQUARE BERLIOZ,50 BIS RUE DOUAI - 75009 PARIS,48.8832078412, 2.33084994903,
22406,22406 - MOQUET (MALAKOFF),81 RUE GUY MOQUET - 92240 MALAKOFF,48.8152498542, 2.29800015658,
18013,18013 - CHATEAU ROUGE,28 RUE POULET - 75018 PARIS,48.8877817707, 2.35051773822,
1023,01023 - ANDRE MALRAUX MUSEE DU LOUVRE,165 RUE SAINT HONORE - 75001 PARIS,48.86349702, 2.33484632755,
14019,14019 - SARETTE GENERAL LECLERC,58 RUE SARRETTE - 75014 PARIS,48.8250308529, 2.3264128694,
34005,34005 - LESENNE (SAINT OUEN),44 RUE ADRIEN LESENNE - 93400 SAINT OUEN,48.9025532782, 2.3482749363,
6030,06030 - ASSAS-VAUGIRARD,22 RUE D'ASSAS - 75006 PARIS,48.848468864, 2.32899674681,
17036,17036 - AVENUE DE TERNES,2-4 PLACE TRISTAN BERNARD - 75017 PARIS,48.8794928867, 2.29149818491,
31012,31012 - CARNOT (MONTREUIL),35/37 RUE CARNOT - 93100 MONTREUIL,48.855810311, 2.44152044245,
11041,11041 - SAINT AMBROISE,2 RUE LACHARRIERE - 75011 PARIS,48.8608207061, 2.37563652587,
16040,16040 - EXELMANS,73 BIS BOULEVARD EXELMANS - 75016 PARIS,48.8431044947, 2.25982139174,
21020,21020 - REPUBLIQUE 2 (BOULOGNE-BILLANCOURT),28 Bd de la République 92100 BOULOGNE BILLANCOURT,48.8319998154, 2.25371998801,
19002,19002 - TANGER,45 & 48 RUE RIQUET - 75019 PARIS,48.8893514535, 2.37077448806,
16122,16122 - MUETTE NEUILLY,ROUTE DE LA MUETTE A NEUILLY - 75016 PARIS,48.8800796431, 2.25857658988,
7020,07020 - CLER,FACE 3 RUE DU CHAMP DE MARS - 75007 PARIS,48.8566411001, 2.30659853411,
35014,35014 - DE GAULLE (PANTIN),139 AVENUE JEAN LOLIVE / MAIL CHARLES DE GAULLE - 93500 PANTIN,48.8932686647, 2.41271573339,
15111,15111 - SERRES,48 RUE OLIVIER DE SERRES - 75015 PARIS,48.8346588628, 2.29578948032,
20017,20017 - RUE SAINT BLAISE,69 RUE SAINT BLAISE - 75020 PARIS,48.85697494, 2.40884245741,
12024,12024 - GARE DE BERCY,GARE DE BERCY - ANGLE RUE CORBINEAU - 75012 PARIS,48.83976, 2.38241,
14033,14033 - DAGUERRE GASSENDI,31 RUE FROIDEVAUX - 75014 PARIS,48.8356804442, 2.32829082205,
11044,11044 - RICHARD LENOIR VOLTAIRE NORD,FACE 104 BOULEVARD RICHARD LENOIR - 75011 PARIS,48.8634319896, 2.37120861796,
35001,35001 - JAURES 1 (PANTIN),168 AVENUE JEAN JAURES - 93500 PANTIN,48.9101370951, 2.39932563331,
15105,15105 - SUFFREN FÉDÉRATION,84 RUE DE LA FEDERATION - 75015 PARIS,48.8527667435, 2.29787643147,
17002,17002 - LA FOURCHE RUE DE LA CONDAMINE,4 RUE DE LA CONDAMINE - 75017 PARIS,48.8879013455, 2.32440044544,
18030,18030 - SIMPLON,1 RUE JOSEPH DIJON - 75018 PARIS,48.8937342775, 2.3475179666,
8034,08034 - HAUSSMANN COURCELLES,49 RUE DE BERRI - 75008 PARIS,48.87481039, 2.30831406419,
12017,12017 - ST MANDE NETTER,82 AVENUE SAINT MANDE - 75012 PARIS,48.8446346263, 2.40509982632,
14011,14011 - ALESIA SARRETTE,6 RUE SARRETTE - 75014 PARIS,48.827525292, 2.33172937899,
20018,20018 - HARPIGNIES,2 RUE HARPIGNIES- 75020 PARIS,48.8586216694, 2.40994255388,
11019,11019 - CHARONNE PHILIPPE AUGUSTE,156 RUE DE CHARONNE - 75011 PARIS,48.855603162, 2.39054639062,
12038,12038 - BEL AIR,FACE 12 BOULEVARD PICPUS - 75012 PARIS,48.8399887889, 2.40052566855,
19109,19109 - PLACE DU MAROC,27 RUE DE TANGER - 75019 PARIS,48.8862334174, 2.3688563905,
15025,15025 - AMETTE,26 RUE DUPLEIX - 75015 PARIS,48.8514541821, 2.29671030093,
41603,41603 - PASTEUR (SAINT MANDE),AVENUE PASTEUR/AVENUE DE PARIS - 94160 SAINT MANDE,48.8457792192, 2.42377059524,
20047,20047 - COURS DE VINCENNES BD DAVOUT,107 COURS DE VINCENNES - 75020 PARIS,48.8473310531, 2.4103900082,
4018,04018 - RIVOLI SEBASTOPOL,1 RUE SAINT BON - 75004 PARIS,48.8579996433, 2.35021728098,
14009,14009 - COTY TOMBE D'ISSOIRE,49 RUE DE LA TOMBE D'ISSOIRE - 75014 PARIS,48.8305559994, 2.33378329803,
16010,16010 - BELLES FEUILLES,4 RUE DES BELLES FEUILLES - 75016 PARIS,48.8658554964, 2.28285990898,
16025,16025 - FONTAINE RAYNOUARD,4 RUE JEAN DE LA FONTAINE - 75016 PARIS,48.8527869441, 2.27558058419,
1003,01003 - RIVOLI SAINT DENIS,7 RUE SAINT DENIS - 75001 PARIS,48.8591502873, 2.34762008768,
16101,16101 - MALAKOFF,161 AVENUE MALAKOFF - 75016 PARIS,48.8766926874, 2.28345759338,
10114,10114 - HOPITAL SAINT LOUIS,12 BIS RUE DE LA GRANGE AUX BELLES - 75010 PARIS,48.8747949948, 2.36666943698,
41302,41302 - CHARLES DE GAULLE (NOGENT),FACE AU 60 AVENUE CHARLES DE GAULLES - 94130 NOGENT SUR MARNE,48.8364811292, 2.47946426871,
12102,12102 - DIDEROT BERCY,224 RUE DE BERCY - 75012 PARIS,48.8461880015, 2.37040616152,
1001,01001 - ILE DE LA CITE PONT NEUF,41 QUAI DE L'HORLOGE - 75001 PARIS,48.8570916352, 2.34174799516,
16033,16033 - MICHEL ANGE AUTEUIL,85 RUE JEAN DE LA FONTAINE - 75016 PARIS,48.8484276137, 2.26525382116,
15067,15067 - DESAIX,23 RUE DESAIX - 75015 PARIS,48.8528046049, 2.29307702986,
13053,13053 - CHEVALERET TOLBIAC,56 RUE CHEVALERET - 75013 PARIS,48.8294101346, 2.37593455801,
17043,17043 - PLACE GENERAL KOENIG,10 RUE BELIDOR - 75017 PARIS,48.8802336276, 2.28538067947,
15021,15021 - CROIX NIVERT,DEV 2 RUE JOSEPH LOUVILLE - 75015 PARIS,48.8448064217, 2.29757200598,
16123,16123 - MAHATMA GANDHI,Avenue du Mahatma Gandhi face à la Fondation Louis Vuitton dans le Bois de Boulogne - 75016 PARIS,48.876356, 2.264205,
21005,21005 - MORIZET (BOULOGNE-BILLANCOURT),20 AVENUE ANDRE MORIZET - 92100 BOULOGNE-BILLANCOURT,48.8349539797, 2.2416882471,
18025,18025 - MAIRIE DU 18 EME,81 RUE MONT-CENIS - 75018 PARIS,48.8929256534, 2.34451792116,
43401,43401 - GARE RER (JOINVILLE),PARC DU STATIONNEMENT / GARE RER - 94340 JOINVILLE-LE-PONT,48.8199541012, 2.4640255047,
9101,09101 - CADET LA FAYETTE,24-26 RUE CADET - 75009 PARIS,48.8756396718, 2.34352359155,
20132,20132 - REUNION,4 RUE DE LA REUNION - 75020 PARIS,48.852566752, 2.40392806871,
19016,19016 - OURCQ,78 RUE D'HAUTPOUL - 75019 PARIS,48.8863936794, 2.38654145444,
21111,21111 - LERICHE (CLICHY),14 RUE DU PROFESSEUR RENE LERICHE - 92110 CLICHY,48.908110383, 2.30751971008,
13016,13016 - PRIMO LEVI,9 RUE PRIMO LEVI - 75013 PARIS,48.8309484485, 2.37965351593,
20021,20021 - PRAIRIE L INDRE,2 RUE DE L'INDRE - 75020 PARIS,48.8627264627, 2.403351311,
2011,02011 - BIBLIOTHEQUE NATIONALE,71 RUE DE RICHELIEU - 75002 PARIS,48.8682998892, 2.33808978228,
11036,11036 - JULES FERRY FAUBOURG DU TEMPLE,FACE 28 RUE JULES FERRY - 75011 PARIS,48.8684101048, 2.36784149724,
22403,22403 - BROSSOLETTE (MALAKOFF),FACE 35 AVENUE PIERRE BROSSOLETTE - 92240 MALAKOFF,48.8218356479, 2.31345860825,
34004,34004 - VOLTAIRE (SAINT OUEN),1 RUE VOLTAIRE - 93400 SAINT OUEN,48.9024997605, 2.34224814466,
13041,13041 - PORTE D'IVRY,4 AVENUE D'IVRY - 75013 PARIS,48.821962441, 2.36852869997,
16003,16003 - ANDRE MAUROIS,2 BIS BOULEVARD ANDRE MAUROIS - 75016 PARIS,48.8779308172, 2.27895982497,
7017,07017 - LA TOUR MAUBOURG,1 AVENUE DE LA MOTTE PICQUET - 75007 PARIS,48.8572764983, 2.31025792753,
15063,15063 - SAINT CHARLES - CONVENTION,59 RUE DE LA CONVENTION - 75015 PARIS,48.8432953589, 2.28320900002,
13109,13109 - BRILLAT SAVARIN,16 RUE BRILLAT SAVARIN - 75013 PARIS,48.8222030963, 2.35042203291,
17020,17020 - NICARAGUA,49 RUE JOUFFROY D'ABBANS - 75017 PARIS,48.8850699437, 2.30708321666,
19110,19110 - MACDONALD,180 Boulevard Macdonald - 75019 PARIS,48.89869, 2.3755,
7002,07002 - VANEAU,86 RUE VANEAU - 75007 PARIS,48.8485776076, 2.32041739312,
9111,09111 - LA FAYETTE PROVENCE,28 RUE DE LA VICTOIRE - 75009 PARIS,48.8751437349, 2.33811850514,
15029,15029 - EMERIAU,27 RUE EMERIAU - 75015 PARIS,48.8506147509, 2.28725016347,
6014,06014 - PONT DE LODI DAUPHINE,7 RUE DU PONT DE LODI - 75006 PARIS,48.8552968986, 2.33994730757,
6028,06028 - ODEON QUATRE VENTS,6 RUE DES QUATRE VENTS - 75006 PARIS,48.8517513745, 2.33816169513,
20022,20022 - PORTE DE BAGNOLET,1 RUE GEO CHAVEZ - 75020 PARIS,48.86508, 2.40799,
4005,04005 - SULLY MORLAND,2 QUAI DES CELESTINS - 75004 PARIS,48.8512714821, 2.36243021298,
15019,15019 - VAUGIRARD CAMBRONNE,3 RUE PAUL BARRUEL - 75015 PARIS,48.8400577188, 2.30450742096,
22404,22404 - BROSSOLETTE 2 (MALAKOFF),102 AVENUE PIERRE BROSSOLETTE - 92240 MALAKOFF,48.8175597536, 2.30748584127,
18102,18102 - RUE DE LA CHAPELLE,69 BIS RUE DE LA CHAPELLE - 75018 PARIS,48.8964828319, 2.35884552523,
21004,21004 - JAURES 2 (BOULOGNE-BILLANCOURT),55 BOULEVARD JEAN JAURES - 92100 BOULOGNE-BILLANCOURT,48.8400232565, 2.23981899697,
42705,42705 - CONVENTION (LE KREMLIN BICETRE),1 RUE DE LA CONVENTION - 94270 LE KREMLIN BICETRE,48.8128002964, 2.36104116644,
11011,11011 - RICHARD LENOIR,FACE 86 BOULEVARD RICHARD LENOIR - 75011 PARIS,48.8618048521, 2.37265142827,
15016,15016 - DUTOT,59 RUE DUTOT - 75015 PARIS,48.8383124746, 2.30853184382,
15018,15018 - ALLERAY,85 RUE DUTOT - 75015 PARIS,48.8365756643, 2.30687451712,
28001,28001 - WALLACE (PUTEAUX),FACE AU 4 BOULEVARD RICHARD WALLACE - 92800 PUTEAUX,48.8787068535, 2.24197549369,
33003,33003 - FAURE (AUBERVILLIERS),ANGLE RUE BORDIER ET BOULEVARD FELIX FAURE  - 93300 AUBERVILLIERS,48.9039640246, 2.38312549091,
17014,17014 - PORTE DE CLICHY - AVENUE DE CLICHY,12 AVENUE DE LA PORTE DE CLICHY - 75017 PARIS,48.8967873959, 2.31071441901,
2008,02008 - MAIRIE DU 2EME,11 RUE DE LA BANQUE - 75002 PARIS,48.8672932628, 2.34056368636,
21102,21102 - NATIONS UNIES (CLICHY),PLACE DES NATIONS UNIES - 92110 CLICHY,48.8971098501, 2.30990049821,
8045,08045 - ALMA,FACE 3 AVENUE MONTAIGNE - 75008 PARIS,48.8649209825, 2.30254918239,
2014,02014 - SAINT AUGUSTIN,1  3 RUE DAUNOU - 75002 PARIS,48.8691131526, 2.33251510527,
41202,41202 - CHARMES (FONTENAY SOUS BOIS),ANGLE AVENUE DES CHARMES / AVENUE FOCH - 94120 FONTENAY SOUS BOIS,48.8436743414, 2.46308263962,
8037,08037 - MALSHERBES MONCEAU,75 RUE DE MONCEAU - 75008 PARIS,48.8796064572, 2.31455352419,
16102,16102 - PERGOLÈSE/ MARBEAU,52-54 RUE PERGOLÈSE - 75016 PARIS,48.8735687069, 2.28151252253,
41605,41605 - GENERAL DE GAULLE 2 (SAINT MANDE),120 AVENUE GENERAL DE GAULLE - 94160 SAINT MANDE,48.8360886795, 2.41890759472,
31006,31006 - REPUBLIQUE 2 (MONTREUIL),2/4 PLACE DE LA REPUBLIQUE - 93100 MONTREUIL,48.8537596163, 2.42444580801,
5110,05110 - LACEPEDE,27 RUE LACEPEDE - 75005 PARIS,48.8438603532, 2.35190222528,
17006,17006 - GUY MOQUET DAVY,34 RUE GUY MOQUET - 75017 PARIS,48.8920640862, 2.32329134121,
21311,21311 - GAMBETTA (ISSY LES MOULINEAUX),FACE AU 40 BOULEVARD GAMBETTA - 92130 ISSY LES MOULINEAUX,48.8274705017, 2.27854960082,
33006,33006 - KARMAN (AUBERVILLIERS),FACE 143 RUE ANDRE KARMAN - 93300 AUBERVILLIERS,48.910143671, 2.38505201824,
19019,19019 - PETIT HONNEGER,124 RUE PETIT - 75019 PARIS,48.8863896349, 2.39363751443,
18042,18042 - PIGALLE GERMAIN PILLON,FACE 36 BOULEVARD DE CLICHY - 75018 PARIS,48.8827280905, 2.33626263902,
1028,01028 - BERGER,FACE AU 41-45 RUE BERGER - 75001 PARIS,48.8622255, 2.3428337,
9007,09007 - CONDORCET,34 RUE CONDORCET - 75009 PARIS,48.8798312251, 2.34539633899,
11038,11038 - TEMPLE REPUBLIQUE,44 BD DU TEMPLE - 75011 PARIS,48.8657450771, 2.36531295078,
34002,34002 - PERI (SAINT OUEN),128 AVENUE GABRIEL PERI / AVENUE DU CAPITAINE GLAMER - 93400 SAINT OUEN,48.9025922416, 2.33051356484,
31008,31008 - VINCENNES (MONTREUIL),7 BIS RUE DE VINCENNES - 93100 MONTREUIL,48.857702134, 2.43736866129,
42015,42015 - JEAN FERRAT (IVRY),PLACE JEAN FERRAT - 94200 IVRY,48.8185, 2.37427,
5002,05002 - SAINT JACQUES,20 RUE SOMMERARD - 75005 PARIS,48.8503104329, 2.3450158353,
17029,17029 - PLACE AIMÉE MAILLART,29 RUE PIERRE DEMOURS - 75017 PARIS,48.8814111012, 2.29482820074,
8025,08025 - MIROMESNIL,39 RUE DE MIROMESNIL - 75008 PARIS,48.8737604721, 2.31587630835,
42006,42006 - BROSSOLETTE (IVRY),23 RUE PIERRE BROSSOLETTE - 94200 IVRY,48.8169297206, 2.38146031918,
17011,17011 - PORTE DE CLICHY FRAGONARD,4 RUE FRAGONARD - 75017 PARIS,48.8941513833, 2.31467800112,
6020,06020 - SAINT MICHEL DANTON,2 RUE DANTON - 75006 PARIS,48.8529304106, 2.34265739289,
11017,11017 - ALEXANDRE DUMAS,FACE 77 BOULEVARD DE CHARONNE - 75011 PARIS,48.8541760404, 2.39609349532,
11032,11032 - METALLOS,81 BIS RUE JP TIMBAUD - 75011 PARIS,48.8679379631, 2.37788551568,
905,00905 - CONCORDE/BERGES DE SEINE (STATION MOBILE),BERGES DE SEINE, BAS DE LA BRETELLE AVAL CONCORDE - 75007 PARIS,48.863147,2017-04-08T18:32:21+02:00
4107,04107 - BEAUMARCHAIS,27 BOULEVARD BEAUMARCHAIS - 75004 PARIS,48.8555013577, 2.36842906993,
13103,13103 - SAINT MARCEL,89 BOULEVARD DE L'HOPITAL - 75013 PARIS,48.8377276875, 2.36046033648,
17025,17025 - COURCELLES,2 RUE DE CHAZELLES - 75017 PARIS,48.8794303755, 2.30346740669,
2012,02012 - QUATRE SEPTEMBRE,10 RUE DE CHOISEUL - 75002 PARIS,48.869969734, 2.33603945554,
5029,05029 - PORT ROYAL,FACE 41 AVENUE GEORGES BERNANOS - 75005 PARIS,48.8401089567, 2.33729688974,
17039,17039 - PLACE SAINT FERDINAND,26 RUE SAINT FERDINAND - 75017 PARIS,48.8781552979, 2.28851804786,
15069,15069 - BOUCICAUT FAURE,41 AVENUE FELIX FAURE - 75015 PARIS,48.841249336, 2.28838660085,
18011,18011 - HERBERT,85 RUE PAJOL - 75018 PARIS,48.8928457112, 2.36342901628,
8008,08008 - ROME SAINT LAZARE,1 RUE JOSEPH SANSBOEUF - 75008 PARIS,48.8753531745, 2.32288436575,
20016,20016 - PYRENEES VITRUVE,114 BIS RUE DES PYRENEES - 75020 PARIS,48.8571294004, 2.40442562518,
8047,08047 - GEORGE V,28 AVENUE GEORGE V - 75008 PARIS,48.8681659406, 2.30127460932,
15047,15047 - DANTZIG,FACE AU 37 RUE MORILLONS - 75015 PARIS,48.8331797706, 2.2992826416,
15039,15039 - CHARLES VALLIN,133 RUE DE L'ABBE GROULT - 75015 PARIS,48.8360583939, 2.30186596838,
8026,08026 - MESSINE,2 AVENUE MESSINE - 75008 PARIS,48.8754572002, 2.31546549458,
10009,10009 - HITTORFF,FACE 14 RUE HITTORFF - 75010 PARIS,48.8720836089, 2.35766368562,
17005,17005 - BROCHANT,43 RUE BROCHANT - 75017 PARIS,48.8903299891, 2.31973055993,
21007,21007 - RHIN DANUBE (BOULOGNE BILLANCOURT),15 ROND POINT RHIN DANUBE - 92100 BOULOGNE BILLANCOURT,48.8406492986, 2.22797877475,
9014,09014 - FAUBOURG MONTMARTRE,55 RUE DU FAUBOURG MONTMARTRE - 75009 PARIS,48.8753297232, 2.34077266233,
19006,19006 - MATHIS,6 RUE MATHIS - 75019 PARIS,48.8906781294, 2.37614246886,
42703,42703 - FONTAINEBLEAU (KREMLIN BICETRE),93 AVENUE DE FONTAINEBLEAU - 94270 LE KREMLIN BICETRE,48.809582338, 2.3626835099,
15033,15033 - VIOLET,5 PLACE VIOLET - 75015 PARIS,48.8447903903, 2.29054156015,
16044,16044 - STADE FRANCAIS,24 AVENUE DE LA PORTE DE SAINT CLOUD - 75016 PARIS,48.8387133632, 2.25219106054,
10021,10021 - MARCHE ST QUENTIN,4 RUE DES PETITS HOTELS - 75010 PARIS,48.8773560577, 2.35451144564,
16016,16016 - PAUL DOUMER / LA TOUR,53 AVENUE PAUL DOUMER - 75016 PARIS,48.8601161096, 2.28084048191,
12107,12107 - DIDEROT BOURDAN,146 BOULEVARD DIDEROT - 75012 PARIS,48.847653881, 2.39023863314,
12021,12021 - COURTELINE,1 - 3  et 5 avenue Courteline (angle boulevard Soult) - 75012 PARIS,48.8443731937, 2.41097245167,
2020,02020 - OPERA CASANOVA,02 RUE DANIEL CASANOVA - 75002 PARIS,48.8676230781, 2.3332685931,
13010,13010 - PLACE D ITALIE AURIOL,FACE 11 PLACE D'ITALIE - 75013 PARIS,48.8315826438, 2.35670842076,
1012,01012 - BOURSE DU COMMERCE,FACE 29 RUE JEAN JACQUES ROUSSEAU - 75001 PARIS,48.8629981668, 2.34155507783,
5026,05026 - MOUFFETARD SAINT MEDARD,3 RUE PASCAL - 75005 PARIS,48.8389938245, 2.34993205296,
12033,12033 - SAINT EMILION,FACE 28 RUE FRANCOIS TRUFFAUT - 75012 PARIS,48.8335083325, 2.3861331687,
9034,09034 - GODOT DE MAUROY,2 RUE GODOT DE MAUROY - 75009 PARIS,48.8699566816, 2.32659965711,
8052,08052 - WASHINGTON,2 RUE BALZAC - 75008 PARIS,48.872882991, 2.29997293264,
17026,17026 - WAGRAM COURCELLES,105 RUE JOUFFROY D'ABBANS - 75017 PARIS,48.8818571507, 2.30113837818,
21021,21021 - PARADIS (BOULOGNE-BILLANCOURT),FACE AU 128 RUE DES ENFANTS DU PARADIS - 92100 BOULOGNE BILLANCOURT,48.8331749589, 2.2570058673,
22101,22101 - GARE ROUTIERE ( SAINT CLOUD),GARE ROUTIERE - ARRET TRAM - 92210 SAINT CLOUD,48.843126206, 2.22218923568,
20113,20113 - PARC DE BELLEVILLE,30 RUE PIAT - 75020 PARIS,48.8719562664, 2.38498139028,
9030,09030 - VICTOIR CHAUSSEE D ANTIN,79 RUE DE LA VICTOIRE - 75009 PARIS,48.8751858642, 2.33203631337,
18107,18107 - CHARTRES,22-24 RUE DE CHARTRES - 75018 PARIS,48.884706864, 2.35358041023,
13034,13034 - EDISON,54 AVENUE EDISON - 75013 PARIS,48.8290266697, 2.36106902409,
18044,18044 - CLICHY,132 BOULEVARD DE CLICHY - 75018 PARIS,48.884127108, 2.32880709819,
34010,34010 - DIDEROT 2 (SAINT OUEN),FACE 61-63 RUE DIDEROT- 93400 SAINT OUEN,48.9115704593, 2.33391012713,
15038,15038 - PLACE ADOLPHE CHERIOUX,18 PLACE ADOLPHE CHERIOUX - 75015 PARIS,48.8396350806, 2.30065445929,
20036,20036 - MENILMONTANT - PELLEPORT,164 RUE DE MENILMONTANT - 75020 PARIS,48.8706826338, 2.39895960233,
18114,18114 - LEPIC VERON,35 RUE VERON - 75018 PARIS,48.8852579713, 2.33461773564,
9035,09035 - PLACE DE BUDAPEST,38 RUE DE LONDRES - 75009 PARIS,48.877753234, 2.32733929071,
19029,19029 - SEINE FLANDRE,51 QUAI DE LA SEINE - 75019 PARIS,48.8867988118, 2.3747195168,
11040,11040 - TEMPLE JEAN PIERRE TIMBAUD,18 BD DU TEMPLE - 75011 PARIS,48.8644201417, 2.36613637425,
16002,16002 - PERGOLESE,FACE 25 RUE PERGOLESE - 75016 PARIS,48.8751849611, 2.28421943206,
13008,13008 - ITALIE ROSALIE,FACE 2 PLACE D'ITALIE - 75013 PARIS,48.8319963692, 2.3548094727,
20045,20045 - LOUIS GANNE,3-5 RUE LOUIS GANNE - 75020 PARIS,48.8634696412, 2.40967010022,
10001,10001 - JOHANN STRAUSS,FACE 50 RUE RENE BOULANGER - 75010 PARIS,48.8684999417, 2.35997004961,
9113,09113 - BLEUE,5 RUE BLEUE - 75009 PARIS,48.875821855, 2.3473032303,
12036,12036 - REUILLY,116 RUE DE REUILLY - 75012 PARIS,48.840302745, 2.39463039872,
3101,03101 - PORTE SAINT MARTIN,62 RUE MESLAY - 75003 PARIS,48.868636405, 2.35559159278,
7003,07003 - BON MARCHE,RUE VELPEAU - 75007 PARIS,48.8512303803, 2.32507003874,
10161,10161 - GARE DE L'EST,FACE 129 RUE DU FBG SAINT MARTIN - 75010 PARIS,48.8756701125, 2.35950993759,
17117,17117 - PEREIRE SAUSSURE,2 BIS BOULEVARD PEREIRE - 75017 PARIS,48.8881856419, 2.31012053655,
6003,06003 - SAINT SULPICE,15 RUE DU VIEUX COLOMBIER - 75006 PARIS,48.8516478481, 2.33081707439,
19039,19039 - PAILLERON,6 RUE EDOUARD PAILLERON - 75019 PARIS,48.8797752489, 2.37483435116,
18012,18012 - DOUDEAUVILLE STEPHENSON,51 RUE STEPHENSON - 75018 PARIS,48.8888648961, 2.35596672142,
12042,12042 - MONTEMPOIVRE,36-38 boulevard Soult - 75012 PARIS,48.8403981722, 2.40922942058,
10023,10023 - VERDUN,1 AVENUE DE VERDUN - 75010 PARIS,48.8761560543, 2.36091490832,
18002,18002 - CLIGNANCOURT,25 RUE DE CLIGNANCOURT - 75018 PARIS,48.8853016219, 2.34721103754,
18010,18010 - MARX DORMOY - RIQUET,100 RUE RIQUET - 75018 PARIS,48.89026411, 2.36029911,
15060,15060 - MONDRIAN,9 PLACE DE LA MONTAGNE DU GOULET - 75015 PARIS,48.8442928656, 2.2773458971,
18037,18037 - AMIRAUX,48 RUE BOINOD - 75018 PARIS,48.8945417158, 2.35229546678,
20002,20002 - PIXERECOURT,FACE 65 RUE PIXERECOURT - 75020 PARIS,48.873803623, 2.3960122233,
23009,23009 - FRANCE (LEVALLOIS),18 RUE ANATOLE FRANCE - 92300 LEVALLOIS-PERRET,48.8887627777, 2.28813601438,
19046,19046 - PORTE DE PANTIN,3 PLACE DE LA PORTE DE PANTIN - 75019 PARIS,48.8890400681, 2.3952894618,
11039,11039 - JULES FERRY REPUBLIQUE,FACE 121 BOULEVARD RICHARD LENOIR - 75011 PARIS,48.8658042767, 2.36933707497,
13014,13014 - GARE D'AUSTERLITZ,5 BIS BOULEVARD DE L'HOPITAL - 75013 PARIS,48.8425244908, 2.36404495866,
7103,07103 - BELGRADE,2 RUE DE BELGRADE - 75007 PARIS,48.8560593101, 2.30223912888,
14032,14032 - MOUTON DUVERNET - MAIRIE DU 14EME,26 RUE MOUTON DUVERNET - 75014 PARIS,48.8325012787, 2.32540116669,
21014,21014 - HAMEAU FLEURI (BOULOGNE-BILLANCOURT),FACE AU 12 RUE DU HAMEAU FLEURIE - 92100 BOULOGNE BILLANCOURT,48.8314286501, 2.24120465344,
7015,07015 - VARENNE,9 BOULEVARD DES INVALIDES - 75007 PARIS,48.8572901185, 2.31530968318,
10107,10107 - MAGENTA PARE,9 RUE AMBROISE PARE - 75010 PARIS,48.8819497432, 2.35233950656,
3014,03014 - GRENIER SAINT LAZARE,FACE 34 RUE GRENIER SAINT LAZARE - 75003 PARIS,48.8630628327, 2.35283938072,
14014,14014 - STADE CHARLETY,5 BOULEVARD JOURDAN - 75014 PARIS,48.8194013049, 2.34337661053,
18043,18043 - BLANCHE,55 BOULEVARD DE CLICHY - 75018 PARIS,48.8835647449, 2.33341862941,
14030,14030 - LOSSERAND - PERNETY,61 RUE PERNETY - 75014 PARIS,48.834254628, 2.31760933939,
21205,21205 - JAURES 2 (MONTROUGE),AVENUE JEAN JAURES / RUE ROGER SALENGERO - 92120 MONTROUGE,48.8138629636, 2.30694360566,
31007,31007 - PARIS 1 (MONTREUIL),56 RUE DE PARIS - 93100 MONTREUIL,48.857364, 2.4321581,
16020,16020 - PORTE DE PASSY,1 PLACE DE LA PORTE DE PASSY - 75016 PARIS,48.857382128, 2.26427707208,
8038,08038 - FRANCOIS 1 ER,22 RUE FRANCOIS 1ER - 75008 PARIS,48.86688765, 2.30667557572,
4019,04019 - BEAUBOURG SAINT MERRY,4 RUE DU CLOITRE SAINT MERRI - 75004 PARIS,48.8588289882, 2.35189147062,
19030,19030 - MOSELLE JAURES,6 PASSAGE DE MELUN - 75019 PARIS,48.883777, 2.376515,
6002,06002 - SAINT PÈRES,1 RUE SAINT BENOIT - 75006 PARIS,48.8554999844, 2.33344522003,
14034,14034 - RUE DE L OUEST CHATEAU,48 RUE DE L'OUEST - 75014 PARIS,48.8361728601, 2.31939214392,
13123,13123 - BNF - QUAI FRANÇOIS MAURIAC,51/57 QUAI FRANCOIS MAURIAC - 75013 PARIS,48.8348392381, 2.37633056939,
20005,20005 - RUE DE LAGNY SAINT MANDE,2 RUE REYNALDO HAHN - 75020 PARIS,48.8492660436, 2.41233032884,
18007,18007 - GOUTTE D' OR,65 RUE DE LA GOUTTE D'OR - 75018 PARIS,48.8851980094, 2.34994199169,
10026,10026 - CHATEAU LANDON,2 RUE DE CHATEAU LANDON - 75010 PARIS,48.879305, 2.362424,
13052,13052 - TOLBIAC LERREDE,2 RUE LEREDDE - 75013 PARIS,48.8289747443, 2.37433200086,
20001,20001 - PLACE DE LA NATION,1 COURS DE VINCENNES - 75020 PARIS,48.8483646678, 2.39976238598,
5030,05030 - SORBONNE,5 RUE DE LA SORBONNE - 75005 PARIS,48.8497703706, 2.34357357573,
42704,42704 - ROSSEL (LE KREMLIN BICETRE),RUE ROSSEL / AVENUE DE LA CONVENTION - 94270 LE KREMLIN BICETRE,48.8120128143, 2.35697189329,
11112,11112 - CHARONNES VALLES,22 RUE JULES VALLES - 75011 PARIS,48.8543041778, 2.38488615344,
21306,21306 - LAFAYETTE (ISSY LES MOULINEAUX),PLACE LAFAYETTE - 92130 ISSY LES MOULINEAUX,48.8297433877, 2.26381634155,
19113,19113 - PRE ST GERVAIS,27 RUE DU PRE SAINT GERVAIS - 75019 PARIS,48.8779234119, 2.39598555362,
31701,31701 - BERTON (BAGNOLET),3 RUE RAOUL BERTON - 93170 BAGNOLET,48.868453299, 2.41781693474,
12115,12115 - PORTE DE VINCENNES,22 AVENUE DE LA PORTE DE VINCENNES - 75012 PARIS,48.8464193693, 2.41563660715,
19010,19010 - PORTE DE LA VILLETTE,RUE EMILE REYNAUD SUR TPC - 75019 PARIS,48.9011641134, 2.38859073387,
18004,18004 - ABBESSES,2 RUE DE LA VIEUVILLE - 75018 PARIS,48.8844823927, 2.33881229703,
17022,17022 - PLACE DE WAGRAM,67 BOULEVARD PEREIRE - 75017 PARIS,48.8870706076, 2.30411112453,
6104,06104 - HERSCHEL,7 RUE HERSCHEL - 75006 PARIS,48.8433642428, 2.33780343097,
4006,04006 - BASSIN DE L'ARSENAL,FACE 1 BOULEVARD BOURBON - 75004 PARIS,48.8477251257, 2.36593915313,
20033,20033 - ETIENNE DOLET,29 RUE ETIENNE DOLLET - 75020 PARIS,48.8680494102, 2.38513309762,
11022,11022 - LEON BLUM ROQUETTE,142 RUE DE LA ROQUETTE - 75011 PARIS,48.858001906, 2.38179770265,
32606,32606 - GARDE CHASSE (LES LILAS),49 RUE DU GARDE CHASSE - 93260 LES LILAS,48.8832402516, 2.41891236965,
22405,22405 - NORD (MALAKOFF),ANGLE PASSAGE DU NORD / GABRIEL PERI - 92240 MALAKOFF,48.8193391584, 2.30047686505,
14005,14005 - DENFERT ROCHEREAU,2 AVENUE RENE COTY - 75014 PARIS,48.8331407992, 2.33267222748,
16041,16041 - VERSAILLES,164 AVENUE DE VERSAILLES - 75016 PARIS,48.8402193381, 2.26383419115,
11026,11026 - CHEMIN VERT SAINT MAUR,105 RUE DU CHEMIN VERT - 75011 PARIS,48.8611944193, 2.38130190492,
42501,42501 - RASPAIL 1 - FRAYSSE,80 AVENUE RASPAIL - 94250 GENTILLY,48.81031545, 2.34395871,
6004,06004 - REGARD,19 RUE DU REGARD - 75006 PARIS,48.8475178294, 2.32697330559,
15035,15035 - PLACE ETIENNE PERNET,2 RUE DES FRERES MORANE - 75015 PARIS,48.8424587555, 2.29217354144,
34006,34006 - MICHELET (SAINT OUEN),42 AVENUE MICHELET - 93400 SAINT OUEN,48.910356422, 2.34430102118,
2006,02006 - PLACE DES VICTOIRES,2 RUE D'ABOUKIR - 75002 PARIS,48.8660026326, 2.34192041196,
16012,16012 - BOULEVARD FLANDRIN,68 BOULEVARD FLANDRIN - 75016 PARIS,48.8687784918, 2.27435453918,
12001,12001 - BASTILLE,48 BOULEVARD DE LA BASTILLE - 75012 PARIS,48.8513111874, 2.36925048358,
13117,13117 - STADE GEORGES CARPENTIER,95-97 BOULEVARD MASSENA - 75013 PARIS,48.820495188, 2.36681968214,
10019,10019 - PARADIS,23 RUE PARADIS - 75010 PARIS,48.8750340562, 2.35218489483,
10018,10018 - ALBAN SATRAGNE,110-112 RUE FAUBOURG SAINT DENIS - 75010 PARIS,48.8753849056, 2.35609401864,
19045,19045 - CANAL SAINT DENIS - BD MACDONALD,145 BOULEVARD MCDONALD - 75019 PARIS,48.8988301928, 2.3793301091,
18014,18014 - DOUDEAUVILLE LEON,26 RUE LEON - 75018 PARIS,48.8883242185, 2.35357337264,
20108,20108 - HOSPICE DEBROUSSE,142 RUE DE BAGNOLET - 75020 PARIS,48.8615729588, 2.40568863716,
12127,12127 - TREMBLAY - INSEP,11, avenue du Temblay - 75012 PARIS,48.83397,2017-04-08T18:32:01+02:00
15065,15065 - HUMBERT,23 RUE EMILE ZOLA - 75015 PARIS,48.846383773, 2.2800084119,
1018,01018 - RIVOLI TUILERIE,2 RUE D'ALGER - 75001 PARIS,48.8647936661, 2.32943142195,
15024,15024 - LAOS,88 AVENUE DE SUFFREN - 75015 PARIS,48.8509146082, 2.30129338467,
21017,21017 - REPUBLIQUE 1 (BOULOGNE-BILLANCOURT),91 BOULEVARD DE LA REPUBLIPQUE - 92100 BOULOGNE-BILLANCOURT,48.8334736793, 2.24390053208,
10027,10027 - DUNKERQUE,4 RUE DE DUNKERQUE - 75010 PARIS,48.8793551032, 2.35837919245,
6025,06025 - RENNES - ASSAS,16 RUE D'ASSAS - 75006 PARIS,48.8492084999, 2.32851454623,
15017,15017 - PROCESSION,7 PLACE FALGUIERE - 75015 PARIS,48.8363338618, 2.31046623803,
11033,11033 - BREGUET SABIN,FACE 23 BD RICHARD LENOIR - 75011 PARIS,48.8568704678, 2.37055463986,
21011,21011 - SILLY (BOULOGNE BILLANCOURT),153 RUE DE SILLY - 92100 BOULOGNE BILLANCOURT,48.8322746602, 2.23401640135,
12101,12101 - CHARENTON PRAGUE,89 TER RUE DE CHARENTON - 75012 PARIS,48.84817513, 2.37635844943,
19015,19015 - THIONVILLE,24 RUE DE THIONVILLE - 75019 PARIS,48.8891549176, 2.38337541728,
22009,22009 - DE GAULLE 2 (NEUILLY),FACE AU 99 AVENUE CHARLES DE GAULLE - 92200 NEUILLY SUR SEINE,48.88119, 2.27186,
20014,20014 - CHARONNE - ALEXANDRE DUMAS,142 BD CHARONNE - 75020 PARIS,48.85599402, 2.39490886,
13027,13027 - MAZAGRAND COUBERTIN,AVENUE DE LA PORTE DE GENTILLY - 75013 PARIS,48.8162582572, 2.34418192299,
5020,05020 - PONT DE SULLY RIVE GAUCHE,03 RUE DES FOSSES SAINT BERNARD - 75005 PARIS,48.8491596892, 2.35614032748,
15102,15102 - SQUARE BELA BARTOK,QUAI DE GRENELLE - 75015 PARIS,48.8511672407, 2.28460760757,
6108,06108 - SAINT ROMAIN CHERCHE MIDI,20 RUE SAINT ROMAIN - 75006 PARIS,48.8470300806, 2.32128942101,
21016,21016 - POINT DU JOUR (BOULOGNE-BILLANCOURT),118 RUE DU POINT DU JOUR - 92100 BOULOGNE BILLANCOURT,48.8287531414, 2.24591146701,
15055,15055 - VASCO DE GAMA,44 RUE VASCO DE GAMA - 75015 PARIS,48.8367094965, 2.28369238081,
10016,10016 - VILLEMIN,29 RUE DES RECOLLETS - 75010 PARIS,48.8750346559, 2.3598012386,
12029,12029 - DUGOMMIER,FACE 4 BOULEVARD DE REUILLY - 75012 PARIS,48.8388490234, 2.38972450812,
11103,11103 - RICHARD LENOIR,21 RUE PELEE - 75011 PARIS,48.8600393112, 2.37098437424,
14026,14026 - PLANTES MOULIN VERT,23 RUE DES PLANTES - 75014 PARIS,48.8301471958, 2.32331344598,
16036,16036 - PORTE MOLITOR,PLACE DE LA PORTE MOLITOR - 75016 PARIS,48.8452443139, 2.2569395374,
6022,06022 - MARCHE SAINT GERMAIN - MABILLON,17 RUE LOBINEAU - 75006 PARIS,48.8516596929, 2.33550466501,
10110,10110 - LOUIS BLANC,10 RUE LOUIS BLANC - 75010 PARIS,48.8793321747, 2.36862871575,
2102,02102 - SAINT MARC,8 RUE SAINT MARC - 75002 PARIS,48.870314764, 2.34187856663,
11024,11024 - BOULEVARD VOLTAIRE,82 RUE SEDAINE - 75011 PARIS,48.8588289084, 2.37887132712,
15110,15110 - PLACE ROBERT GUILLEMARD,PLACE ROBERT GUILLEMARD - 75015 PARIS,48.8362103615, 2.28103938101,
22001,22001 - CHATEAU (NEUILLY),26 BOULEVARD DU CHATEAU - 92200 NEUILLY,48.8905119135, 2.27016722527,
16037,16037 - MOLITOR - MICHEL ANGE,35 RUE MOLITOR - 75016 PARIS,48.8451820815, 2.26211277357,
2007,02007 - CHABANAIS,1 RUE CHABANAIS - 75002 PARIS,48.8671234464, 2.33668660824,
12011,12011 - CHARENTON,160 RUE CHARENTON - 75012 PARIS,48.8448673196, 2.38257893505,
15050,15050 - PADO - CROIX NIVERT,19 Rue Dominique Pado - 75015 PARIS,48.83656, 2.28976,
10042,10042 - POISSONNIÈRE - ENGHIEN,52 RUE D'ENGHIEN / ANGLE RUE DU FAUBOURG POISSONIERE - 75010 PARIS,48.8724200631, 2.34839523628,
1022,01022 - RUE DE LA PAIX,37 RUE CASANOVA - 75001 PARIS,48.8682170168, 2.3304935114,
20040,20040 - PARC DE BELLEVILLE,57 & 36 RUE JULIEN LACROIX - 75020 PARIS,48.8703936716, 2.38422247271,
28002,28002 - SOLJENITSYNE (PUTEAUX),BOULEVARD ALEXANDRE SOLJENITSYNE - 92800 PUTEAUX,48.884478, 2.24772065,
7007,07007 - MUSÉE D'ORSAY,62 RUE DE LILLE - 75007 PARIS,48.8597101044, 2.32580902463,
5005,05005 - SAINT JACQUES GAY LUSSAC,27 RUE GAY LUSSAC - 75005 PARIS,48.8447302561, 2.34192394487,
11029,11029 - MENILMONTANT OBERKAMPF,137 BOULEVARD MENILMONTANT - 75011 PARIS,48.8666176587, 2.38301344042,
15028,15028 - DUPLEIX,54 BOULEVARD DE GRENELLE - 75015 PARIS,48.8513967211, 2.29188931323,
22005,22005 - DE GAULLE 3 (NEUILLY),195 AVENUE CHARLES DE GAULLE - 92200 NEUILLY,48.8842989294, 2.2609917721,
11008,11008 - FAIDHERBE CHALIGNY,223 RUE DU FAUBOURG SAINT ANTOINE - 75011 PARIS,48.8503797539, 2.38386933547,
16027,16027 - JASMIN,79 AV MOZART- 75016 PARIS,48.8528612487, 2.26848357065,
9005,09005 - SQUARE D'ANVERS,95 RUE DE DUNKERQUE - 75009 PARIS,48.8826334843, 2.34488440621,
8031,08031 - ROND POINT DES CHAMPS ELYSEES,2 RUE JEAN MERMOZ - 75008 PARIS,48.869708848, 2.31071465537,
14013,14013 - LIART AMIRAL MOUCHEZ,1 RUE LIARD - 75014 PARIS,48.8212276633, 2.34210421456,
18019,18019 - MONTCALM,2 RUE MONTCALM - 75018 PARIS,48.8918779571, 2.33544742769,
901,00901 -PORT SOLFERINO (STATION MOBILE),BERGES DE SEINE, SOUS LA PASSERELLE SENGHOR AU PORT DE SOLFERINO - 75007 PARIS,48.86138,2017-04-08T18:33:12+02:00
13021,13021 - BOUSSINGAULT - TOLBIAC,55 RUE BOUSSINGAULT - 75013 PARIS,48.8260351661, 2.342176808,
2005,02005 - MONTORGUEIL RUE MONTMARTRE VERSION 2,46 RUE DE MONTMARTRE - 75002 PARIS,48.8650219458, 2.34506844014,
15062,15062 - BOUCICAUT,87 RUE DE LA CONVENTION - 75015 PARIS,48.8421443316, 2.28586265594,
3011,03011 - TURBIGO,55 RUE TURBIGO - 75003 PARIS,48.8655841911, 2.35627844763,
18028,18028 - VAUVENARGUES,195 RUE CHAMPIONNET - 75018 PARIS,48.8940572513, 2.33219933598,
21015,21015 - NATIONALE (BOULOGNE-BILLANCOURT),39 RUE NATIONALE - 92100 BOULOGNE-BILLANCOURT,48.8276004241, 2.24183519132,
10040,10040 - BELLEVILLE,8 BOULEVARD DE LA VILETTE - 75010 PARIS,48.8727781565, 2.37634839465,
10008,10008 - CITE RIVERIN,12 RUE CITE RIVERIN / ANGLE RUE DU CHATEAU D'EAU - 75010 PARIS,48.8707649819, 2.35872446227,
6015,06015 - MAZET SAINT ANDRE DES ARTS,10 RUE ANDRE MAZET - 75006 PARIS,48.8537510735, 2.3391137229,
11043,11043 - CIRQUE D HIVER,PLACE PASDELOUP - 75011 PARIS,48.8626503001, 2.36705349045,
5024,05024 - PLACE MONGE,4 RUE DOLOMIEU - 75005 PARIS,48.842735043, 2.35247243722,
15036,15036 - LAMBERT,102 RUE DE LA CROIX NIVERT - 75015 PARIS,48.8430763869, 2.2951414131,
10015,10015 - RECOLLETS,46 RUE LUCIE SAMPAIX - 75010 PARIS,48.8741129165, 2.3624985287,
19114,19114 - MANIN SECRETAN,31 RUE MANIN - 75019 PARIS,48.8792751957, 2.37863702192,
12032,12032 - PORTE DOREE,1 PLACE EDOUARD RENARD - 75012 PARIS,48.8355450436, 2.40745551593,
16110,16110 - OCTAVE FEUILLET,4-6 RUE OCTAVE FEUILLET - 75016 PARIS,48.8609983661, 2.27312852714,
15049,15049 - PORTE DE VERSAILLES,2 AVENUE ERNEST RENAN - 75015 PARIS,48.8321794443, 2.28712226198,
15053,15053 - LECOURBE,250 RUE LECOURBE - 75015 PARIS,48.8392220978, 2.29154050795,
6103,06103 - MEZIERES RENNES,16 RUE DE MEZIERES - 75006 PARIS,48.8502970102, 2.33044682028,
3001,03001 - CHEMIN VERT BEAUMARCHAIS,69 BOULEVARD BEAUMARCHAIS - 75003 PARIS,48.8580440569, 2.3678326593,
11001,11001 - BASTILLE RICHARD LENOIR,2 BOULEVARD RICHARD LENOIR - 75011 PARIS,48.8538482262, 2.36970148822,
17018,17018 - MONCEAU,4 RUE DE THANN - 75017 PARIS,48.8811619836, 2.30951238051,
4103,04103 - HOTEL DE VILLE,1 RUE DES ARCHIVES - 75004 PARIS,48.8572037877, 2.35397627362,
21013,21013 - GRENIER (BOULOGNE-BILLANCOURT),4 AVENUE PIERRE GRENIER - 92100 BOULOGNE-BILLANCOURT,48.8258469347, 2.24882139109,
9008,09008 - TOUR D'AUVERGNE,24 RUE D'AUVERGNE - 75009 PARIS,48.8791617778, 2.34369843072,
12006,12006 - QUAI DE LA RAPEE - GARE DE LYON,76-68 QUAI DE LA RAPEE - 75012 PARIS,48.8439658, 2.3703793,
14016,14016 - REILLE MONTSOURIS,61 AVENUE RENE COTY - 75014 PARIS,48.8247671026, 2.3359996773,
15070,15070 - BLANC,88 RUE BALARD - 75015 PARIS,48.8386338715, 2.27827419306,
17047,17047 - COURCELLES - DEMOURES,172 RUE DE COURCELLES - 75017 PARIS,48.8837697333, 2.29858466343,
18018,18018 - CARPEAUX,13 RUE CARPEAUX - 75018 PARIS,48.8907472102, 2.33082039648,
4014,04014 - ARCHIVES BLANCS MANTEAUX,29 RUE DES BLANCS MANTEAUX - 75004 PARIS,48.8594027196, 2.35592748654,
32008,32008 - EMGP-GARDINOUX (AUBERVILLIERS/ST-DENIS),204 RUE DES FILLETTES - 93300 AUBERVILLIERS,48.906023, 2.366039,
7009,07009 - ASSEMBLEE NATIONALE,FACE 119 RUE DE LILLE - 75007 PARIS,48.8613738909, 2.3201312769,
1015,01015 - PLACE ANDRE MALRAUX,2 PLACE ANDRE MALRAUX - 75001 PARIS,48.8639796552, 2.33559960389,
43005,43005 - AUBERT (VINCENNES),18 AVENUE AUBERT - 94300 VINCENNES,48.8475504363, 2.43343260792,
20008,20008 - MARAICHERS,73 RUE DES PYRENEES - 75020 PARIS,48.8532468982, 2.40587104453,
5027,05027 - GOBELINS,22 AVENUE DES GOBELINS - 75005 PARIS,48.8371260386, 2.35143332977,
15037,15037 - GROULT,202 RUE LECOURBE - 75015 PARIS,48.8404161884, 2.29546490652,
4002,04002 - MARCHE AUX FLEURS,PLACE LOUIS LEPINE - 75004 PARIS,48.8552533608, 2.34735644764,
15030,15030 - LINOIS,66 RUE EMERIAU - 75015 PARIS,48.8480457863, 2.2843806337,
11020,11020 - CHARONNE,1 RUE DE BELFORT - 75011 PARIS,48.856317178, 2.38307245237,
15059,15059 - CITROEN,RUE BALARD - 75015 PARIS,48.8407143644, 2.27801857157,
8013,08013 - MARIGNAN,24 RUE DE MARIGNAN - 75008 PARIS,48.8696161949, 2.3066208349,
43001,43001 - PARIS 1 (VINCENNES),168 AVENUE DE PARIS - 94300 VINCENNES,48.8463380539, 2.42024734047,
17004,17004 - LEGENDRE AVENUE DE CLICHY,130 RUE LEGENDRE - 75017 PARIS,48.8889616186, 2.32252897509,
9104,9104 - CAUMARTIN PROVENCE,52 RUE DE CAUMARTIN - 75009 PARIS,48.874505246, 2.32847426087,
20120,20120 - NOISY LE SEC,1 RUE EVARISTE GALOIS - 75020 PARIS,48.8733382252, 2.41323987955,
15107,15107 -  PALAIS DES SPORTS,42 BOULEVARD VICTOR - 75015 PARIS,48.8335736182, 2.28548042092,
15013,15013 - LECOURBE VOLONTAIRE,DEV 1 RUE DES VOLONTAIRES - 75015 PARIS,48.843542735, 2.30655861557,
9029,09029 - TRINITE,62 RUE SAINT LAZARE - 75009 PARIS,48.8768593273, 2.33276238001,
6001,06001 - INSTITUT,5 QUAI MALAQAIS - 75006 PARIS,48.8576156786, 2.33583135304,
11109,11109 - REPUBLIQUE PIERRE LEVEE,1 RUE DE LA PIERRE LEVEE - 75011 PARIS,48.8663313479, 2.37109744847,
11111,11111 - CHARONNE FROT,31 RUE LEON FROT - 75011 PARIS,48.8549638003, 2.38721708537,
18111,18111 - FELIZ ZIEM,2 RUE FELIX ZIEM - 75018 PARIS,48.8894963049, 2.3333936588,
5022,05022 - CARDINAL LEMOINE,40 RUE BOU LANGERS - 75005 PARIS,48.8462950317, 2.35222292161,
10111,10111 - JEMMAPES,100 QUAI DE JEMMAPES - 75010 PARIS,48.8734627987, 2.36403505925,
19022,19022 - MEAUX - SECRETAN,53 RUE DE MEAUX - 75019 PARIS,48.8813548433, 2.37333118916,
19125,19125 - LEDIT DE NANTES,PLACE LEDIT DE NANTES - 75019 PARIS,48.8887900268, 2.37850015614,
5031,05031 - LACEPEDE,2 RUE LACEPEDE - 75005 PARIS,48.8436748454, 2.35461598268,
1116,01116 - OPÉRA PYRAMIDES,4 RUE DE VENTADOUR - 75001 PARIS,48.8668106533, 2.33438844825,
12130,12130 - NOGENT - PORTE JAUNE,AVENUE DE NOGENT - LA PORTE JAUNE - 75012 PARIS,48.83884, 2.46031,
19001,19001 - OURCQ CRIMEE,243 RUE DE CRIMEE - 75019 PARIS,48.8941041403, 2.37294608847,
18041,18041 - MARTYRS 2,FACE 112 BOULEVARD DE ROCHECHOUART - 75018 PARIS,48.882194204, 2.34065184962,
2022,02022 - BONNE NOUVELLE SAINT FIACRE,20 RUE SAINT FIACRE - 75002 PARIS,48.8707827795, 2.34590581139,
18026,18026 - RUISSEAU ORDENER,37 RUE DU RUISSEAU - 75018 PARIS,48.892895284, 2.34011963244,
19009,19009 - CITE DES SCIENCES,28BIS AVENUE CORENTIN CARIOU - 75019 PARIS,48.8965490598, 2.38464964402,
3004,03004 - REPUBLIQUE 23,19 PLACE DE LA REPUBLIQUE - 75003 PARIS,48.86707, 2.36351,
19105,19105 - PORTE BRUNET,FACE 1 AVENUE AMBROISE RENDU - 75019 PARIS,48.8836592109, 2.39571950819,
20030,20030 - PERE LACHAISE,54 BOULEVARD MENILMONTANT - 75020 PARIS,48.8634111074, 2.38713395757,
17107,17107 - BERTHIER STUART MERRIL,182 BOULEVARD BERTHIER - 75017 PARIS,48.8859131283, 2.29323415107,
13101,13101 - CROULEBARBE RECULETTES,67-69 RUE DE CROULEBARBE - 75013 PARIS,48.8311217751, 2.34810865478,
13151,13151 - GARE D'AUSTERLITZ,GARE D'AUSTERLITZ - 75013 PARIS,48.84151, 2.36543,
8029,08029 - PLACE DU CANADA,1 AVENUE FRANKLIN ROOSEVELT - 75008 PARIS,48.8653462694, 2.31019378796,
3003,03003 - TURENNE BRETAGNE,4 RUE DES FILLES DU CALVAIRE - 75003 PARIS,48.862132235, 2.36495138689,
20023,20023 - PELLEPORT BELGRAND,44 RUE PELLEPORT - 75020 PARIS,48.8650008185, 2.40398083638,
12041,12041 - BOIS DE VINCENNES,AVENUE DAUMESNIL - 75012 PARIS,48.8336548528, 2.41346357649,
12026,12026 - PARC DE BERCY,61 RUE DE BERCY - 75012 PARIS,48.837721459, 2.38221733705,
11045,11045 - SAINT SEBASTIEN FROISSARD,12 BD DES FILLES DU CALVAIRE - 75011 PARIS,48.8612050519, 2.3673523288,
12113,12113 - CARDINAL LAVIGERIE,4 PLACE DU CARDINAL LAVIGERIE - 75012 PARIS,48.8329341937, 2.4026367494,
7023,07023 - BOURDONNAIS TOUR EIFFEL,QUAI BRANLY - 75007 PARIS,48.8608977979, 2.29559959845,
19123,19123 - QUAI DE METZ,7 QUAI DE METZ - 75019 PARIS,48.89106, 2.3865,
15011,15011 - THEBAUD RUE DE CAMBRONNE,32 RUE CAMBRONNE - 75015 PARIS,48.8458314196, 2.30175308699,
14035,14035 - MAINE GAITE,90 AVENUE DU MAINE - 75014 PARIS,48.8378836278, 2.32255164002,
42702,42702 - LECLERC (KREMLIN BICETRE),73 RUE DU GENERAL LECLERC - 94270 LE KREMELIN BICETRE,48.8104774996, 2.35817289646,
10152,10152 - GARE DU NORD 2,3 BOULEVARD DE DENAIN - 75010 PARIS,48.8790493108, 2.35415909596,
7021,07021 - BOSQUET SAINT DOMINIQUE,37 AVENUE BOSQUET - 75007 PARIS,48.8586517095, 2.30371658023,
16005,16005 - POINCARE VICTOR HUGO,89 AVENUE RAYMOND POINCARE - 75016 PARIS,48.8703061244, 2.28507454142,
1016,01016 - OPERA PYRAMIDES,27 RUE THERESE - 75001 PARIS,48.8664835145, 2.33443342122,
1102,01102 - FRANCAISE – MAUCONSEIL,6 RUE FRANCAISE - 75001 PARIS,48.8640650469, 2.34759791272,
15057,15057 - BOSSOUTROT - MARTIAL VALIN,face au 4 rue Lucien Bossoutrot angle Bd Martial Valin - 75015 PARIS,48.8367802, 2.2738485,
20131,20131 - REPOS,41 RUE DU REPOS - 75020 PARIS,48.8593585236, 2.38961313668,
17016,17016 - BROCHANT,3 RUE BROCHANT - 75017 PARIS,48.8881869858, 2.31686114315,
11002,11002 - ROQUETTE THIERE,37 RUE DE LA ROQUETTE - 75011 PARIS,48.8551062954, 2.37342454193,
2003,02003 - ALLEE PIERRE LAZAEFF,189 RUE SAINT DENIS - 75002 PARIS,48.8661457465, 2.35084459529,
1026,01026 - COLONEL DRIANT,PLACE DU LIEUTENANT HENRI KARCHER - 75001 PARIS,48.8634305019, 2.34016976702,
20112,20112 - JOURDAIN,3 RUE DU JOURDAIN - 75020 PARIS,48.8740924809, 2.38943590833,
17110,17110 - LEGENDRE,83 RUE LEGENDRE - 75017 PARIS,48.8877723254, 2.32036786584,
17031,17031 - PORTE DE CHAMPERET,PLACE DE LA PORTE DE CHAMPERET - 75017 PARIS,48.8856174163, 2.29078141128,
8030,08030 - MONTAIGNE,25 RUE BAYARD - 75008 PARIS,48.8672932362, 2.30769160565,
12120,12120 - CONSERVATION,ROUTE DE LA CEINTURE DU LAC DAUMESNIL - 75012 PARIS,48.827725237, 2.41827234237,
12109,12109 - CHAROLAIS,212 RUE DE CHARENTON - 75012 PARIS,48.8408694597, 2.38756433493,
15008,15008 - SEVRES LECOURBE,FACE 4 BOULEVARD PASTEUR - 75015 PARIS,48.8448380192, 2.31108550609,
7018,07018 - SEGUR ESTREES,23 AVENUE DE SEGUR - 75007 PARIS,48.8512943346, 2.3097476156,
19044,19044 - GRANDS MOULINS,RUE DE LA CLOTURE / ANGLE RUE DU DEBARCADERE - 75019 PARIS,48.8971300531, 2.39607900821,
1009,01009 - PONT NEUF - 14,14 RUE DU PONT NEUF - 75001 PARIS,48.8602451945, 2.34433354527,
3012,03012 - GAITE LYRIQUE,FACE 8 RUE SALOMON DE CAUS - 75003 PARIS,48.8674979894, 2.35366081625,
9026,09026 - BRUYERE PIGALLE,28 RUE J.B.PIGALLE - 75009 PARIS,48.8793982645, 2.33370917334,
9106,09106 - AUBER,3 RUE BOUDREAU - 75009 PARIS,48.8721902514, 2.329423494,
5019,05019 - POISSY,8-10 RUE DE POISSY - 75005 PARIS,48.8496904114, 2.3529701836,
15113,15113 - FALGUIERE ARSONVAL,2 RUE D'ARSONVAL - 75015 PARIS,48.8404004037, 2.3131178673,
23001,23001 - COUTURIER 1 (LEVALLOIS),2 RUE PAUL VAILLANT COUTURIER - 92300 LEVALLOIS,48.8936146525, 2.27761872722,
17046,17046 - MAC MAHON,18 AVENUE MAC MAHON - 75017 PARIS,48.8775320841, 2.29451253605,
19018,19018 - CITÉ DE LA MUSIQUE,FACE 210 AVENUE JEAN JAURES - 75019 PARIS,48.8887860708, 2.39268612207,
19014,19014 - LORRAINE,28 RUE DE LORRAINE - 75019 PARIS,48.8863350826, 2.38246120056,
5021,05021 - JUSSIEU,41 RUE JUSSIEU - 75005 PARIS,48.8471846412, 2.35339837969,
4015,04015 - MAIRIE DU 4 EME,25 RUE DU PONT LOUIS PHILIPPE - 75004 PARIS,48.8559658562, 2.35638115487,
10004,10004 - METZ,7 RUE DE METZ - 75010 PARIS,48.870893426, 2.35352156501,
13036,13036 - TOLBIAC NATIONALE,86 RUE TOLBIAC - 75013 PARIS,48.8269001997, 2.36517760348,
906,00906 - GARE DE L'EST,GARE DE L'EST-PARVIS GARE DE L'EST - 75010 PARIS,48.8764198136, 2.35863006454,
14117,14117 - MOUCHOTTE,5 RUE DU COMMANDANT RENE MOUCHOTTE - 75014 PARIS,48.8393250251, 2.32095412573,
10031,10031 - AQUEDUC,48 RUE LOUIS BLANC - 75010 PARIS,48.88199721, 2.36362521455,
1002,01002 - PLACE DU CHATELET,14 AVENUE VICTORIA - 75001 PARIS,48.857940093, 2.34701005811,
16107,16107 - GODARD,2 RUE BENJAMIN GODARD - 75016 PARIS,48.865983241, 2.27572563573,
20013,20013 - PLACE DE LA REUNION,106 RUE ALEXANDRE DUMAS - 75020 PARIS,48.85535514, 2.39972858969,
8005,08005 - MADELEINE,04 PLACE DE LA MADELEINE - 75008 PARIS,48.8690900883, 2.3244296305,
5003,05003 - GAY LUSSAC LE GOFF,9 RUE LE GOFF - 75005 PARIS,48.8462392817, 2.34132491601,
15027,15027 - GIDE,4 RUE ANDRE GIDE  - 75015 PARIS,48.8365662244, 2.3127071211,
15010,15010 - CAMBRONNE,FACE 3 BD GARIBALDI - 75015 PARIS,48.8475753215, 2.3028631005,
9012,09012 - ROUGEMONT,3-5 RUE ROUGEMONT - 75009 PARIS,48.8715422136, 2.3458364556,
2015,02015 - OPERA - CAPUCINES,25 RUE LOUIS LE GRAND - 75002 PARIS,48.8705089372, 2.33405446194,
10010,10010 - JACQUES BONSERGENT,FACE 8 PLACE JACQUES BONSERGENT - 75010 PARIS,48.8709999898, 2.36114143657,
15061,15061 - DESNOUETTES,12 SQUARE DESNOUETTES - 75015 PARIS,48.8347683793, 2.28414229739,
10113,10113 - PARMENTIER LOUVEL-TESSIER,151 AVENUE PARMENTIER - 75010 PARIS,48.8713798743, 2.36989638367,
16043,16043 - PLACE DE PASSY,2 PLACE DE PASSY - 75016 PARIS,48.8578029171, 2.27750054694,
12123,12123 - CHATEAU DE VINCENNES,COURS DES MARECHAUX - 94300 VINCENNES,48.8442319326, 2.43920953771,
18122,18122 - BINET,5 RUE BINET - 75018 PARIS,48.8992688633, 2.34296347731,
908,00908 - PORT DU GROS CAILLOU (STATION MOBILE),BERGES DE SEINE, ESCALIER PORT DU GROS CAILLOU - 75007 PARIS,48.862905,2017-04-08T18:33:18+02:00
12126,12126 - AVENUE DE GRAVELLE,FACE 71 AVENUE DE GRAVELLE - 75012 PARIS,48.8244077676, 2.41845500423,
5014,05014 - CALVIN,8 RUE JEAN CALVIN - 75005 PARIS,48.8416327086, 2.34855201812,
13048,13048 - TOLBIAC WURTZ,20 RUE WURTZ - 75013 PARIS,48.8264943283, 2.34430171587,
13025,13025 - PLACE DE RUNGIS,FACE 35 RUE DE LA FONTAINE A MULARD - 75013 PARIS,48.8224559476, 2.34738272948,
11025,11025 - FROMENT BREGUET,9 RUE FROMENT - 75011 PARIS,48.8570414505, 2.37289470307,
11101,11101 - SQUARE NORDLING,15 RUE CHARLES DELESCLUZE - 75011 PARIS,48.8525290004, 2.38058363232,
21012,21012 - LECLERC (BOULOGNE-BILLANCOURT),745 AVENUE DU GENERAL LECLERC - 92100 BOULOGNE-BILLANCOURT,48.8305862962, 2.23449077993,
8017,08017 - ROCHER,14 RUE ROCHER - 75008 PARIS,48.8760793292, 2.32273156205,
32003,32003 - METALLURGIE (SAINT DENIS),AVENUE DU PRESIDENT WILSON / RUE DE LA METALLURGIE - 93200 SAINT DENIS,48.9093300219, 2.35805056574,
9039,09039 - CHAUSSEE D'ANTIN,22 rue de la Chaussée d'Antin - 75009 PARIS,48.87243, 2.33359,
41301,41301 - CLEMENCEAU (NOGENT),2 AVENUE GEORGES CLEMENCEAU - 94130 NOGENT,48.836125843, 2.47037545127,
8039,08039 - COLISEE,6 RUE DU COLISEE - 75008 PARIS,48.8704819386, 2.30766254015,
14101,14101 - PLACE FERNAND MOURLOT,33 BD EDGAR QUINET - 75014 PARIS,48.8415048015, 2.32327771564,
4003,04003 - PONT SAINT LOUIS,1 QUAI AUX FLEURS - 75004 PARIS,48.8529448879, 2.35208864944,
12105,12105 - BERCY VILLOT,153 RUE DE BERCY - 75012 PARIS,48.8419071533, 2.37660562531,
13030,13030 - ITALIE TOLBIAC,88 AVENUE D'ITALIE - 75013 PARIS,48.8258394607, 2.35721535751,
8046,08046 - ALMA MARCEAU,2 Avenue MARCEAU - 75008 PARIS,48.8651944053, 2.30024954516,
16023,16023 - RUE DE PASSY,1 RUE DE PASSY - 75016 PARIS,48.8583812529, 2.28412901289,
14127,14127 - ODESSA,5-7 RUE D'ODESSA - 75014 PARIS,48.8428422781, 2.32444156514,
15125,15125 - AQUABOULEVARD,2 AVENUE DE LA PORTE DE SEVRES / AQUABOULEVARD - 75015 PARIS,48.833219823, 2.27663033405,
6024,06024 - SAINT GERMAIN DES PRES,55 RUE DES SAINTS PERES - 75006 PARIS,48.8539423092, 2.33015352477,
11014,11014 - NATION TRONE,FACE 21 PLACE DE LA NATION - 75011 PARIS,48.848808, 2.397406,
903,00903 - QUAI MAURIAC  / PONT DE BERCY,FETE DE L'OH (BERCY) - QUAI MAURIAC ANG PONT DE BERCY - 75013 PARIS,48.8371336895, 2.37434055461,
16105,16105 - CREVAUX,1 RUE CREVAUX - 75016 PARIS,48.8708094287, 2.28114900769,
9025,09025 - TAITBOUT CHÂTEAUDUN,77 RUE TAITBOUT - 75009 PARIS,48.8763839694, 2.33535667793,
9016,09016 - MARTYRS CHORON,24 RUE DE CHORON - 75009 PARIS,48.8777706953, 2.33978496751,
2017,02017 - CAIRE,40, rue du Caire - 75002 PARIS,48.86789,2017-04-08T18:33:24+02:00
19003,19003 - QUAI DE SEINE,3 QUAI DE LA SEINE - 75019 PARIS,48.8843161806, 2.36982957957,
19041,19041 - PYRÉNÉES,101 RUE DE BELLEVILLE - 75019 PARIS,48.8743491365, 2.386095374,
15001,15001 - ARRIVEE,8 RUE DE L'ARRIVEE - 75015 PARIS,48.8437488892, 2.32245193747,
15006,15006 - CHERCHE MIDI,133 RUE DU CHERCHE MIDI - 75015 PARIS,48.844703, 2.317819,
35011,35011 - D'ORVES (PANTIN),12 RUE HONORE D'ESTIENNE D'ORVES - 93500 PANTIN,48.8904846162, 2.40649821383,
11046,11046 - VOLTAIRE,8 place de la république - 75011 PARIS,48.86681, 2.36547,
4007,04007 - BOURDON,BOULEVARD BOURDON - 75004 PARIS,48.8525571174, 2.36824071942,
11031,11031 - PARMENTIER,1 RUE JACQUARD - 75011 PARIS,48.8645557653, 2.37307150739,
19021,19021 - MAIRIE DU 19 EME,4 RUE ARMAND CARREL - 75019 PARIS,48.8825914667, 2.38122061029,
14010,14010 - JEAN MOULIN ALESIA,12 AVENUE JEAN MOULIN - 75014 PARIS,48.8274269001, 2.32576033285,
12110,12110 - BARON LE ROY TRUFFAUT,57-61 RUE DES PIROGUES DE BERCY - 75012 PARIS,48.8337086351, 2.38855666622,
2001,02001 - SEBASTOPOL-GRENATA,12 RUE GRENETA - 75002 PARIS,48.8652406217, 2.35166987369,
42013,42013 - BARBES (IVRY),RUE BARBES / AVENUE DE VERDUN - 94200 IVRY SUR SEINE,48.8159110965, 2.36822972924,
31708,31708 - NOISY (BAGNOLET),116-118 RUE DE NOISY LE SEC - 93170 BAGNOLET,48.8744577172, 2.41513809225,
14112,14112 - FAUBOURG SAINT JACQUES CASSINI,24 RUE MECHAIN - 75014 PARIS,48.835867721, 2.33798034198,
6026,06026 - SAINT PLACIDE CHERCHE MIDI,28 RUE SAINT PLACIDE - 75006 PARIS,48.8491399032, 2.32517538941,
5032,05032 - PANTHEON CARMES,2 RUE VALETTE - 75005 PARIS,48.8469867528, 2.34649965376,
33005,33005 - REPUBLIQUE 2 (AUBERVILLIERS),FACE AU 106 AVENUE DE LA REPUBLIQUE - 93300 AUBERVILLIERS,48.9063833981, 2.38954750193,
12005,12005 - CROZATIER,74 RUE CROZATIER - 75012 PARIS,48.8504400134, 2.37890136621,
17015,17015 - PLACE DE LEVIS,19BIS/21 RUE LEGENDRE - 75017 PARIS,48.8836882175, 2.3132844054,
13043,13043 - DUNOIS CLISSON,55 RUE DUNOIS - 75013 PARIS,48.8322724586, 2.36741586675,
7024,07024 - AVENUE RAPP,43 AVENUE RAPP - 75007 PARIS,48.8581690435, 2.30052833004,
13104,13104 - GARE D'AUSTERLITZ,FACE 109 QUAI D'AUSTERLITZ - 75013 PARIS,48.8437904773, 2.36558566558,
16013,16013 - AVENUE HENRI MARTIN,71 AVENUE HENRI MARTIN - 75016 PARIS,48.8640767117, 2.27688168701,
18023,18023 - POISSONNIERS ORDENER,57 RUE ORDENER - 75018 PARIS,48.8912138908, 2.35128866622,
3005,03005 - TURBIGO SAINTE ELISABETH,7 RUE SAINTE ELISABETH - 75003 PARIS,48.8661372246, 2.35966114363,
18031,18031 - ALBERT KAHN,67 RUE CHAMPIONNET - 75018 PARIS,48.8957969798, 2.34558558413,
19007,19007 - OURCQ-FLANDRES,139 AVENUE DE FLANDRE - 75019 PARIS,48.8927099921, 2.37919974802,
15104,15104 - HÔPITAL GEORGES POMPIDOU (PROP 2),FACE 66 - 70 RUE LEBLANC - 75015 PARIS,48.8376790033, 2.27573060931,
12023,12023 - SAHEL,15 AVENUE EMILE LAURENT - 75012 PARIS,48.8407622776, 2.41052344083,
20028,20028 - GAMBETTA MARTIN NADAUD,FACE 2 RUE ORFILA - 75020 PARIS,48.8651864128, 2.39446858114,
13004,13004 - GLACIERE,88 BOULEVARD AUGUSTE BLANQUI (SUR TPC) - 75013 PARIS,48.8306240751, 2.34542945665,
42205,42205 - PARIS 1 (CHARENTON),89 RUE DE PARIS - 94220 CHARENTON,48.8221431258, 2.41260278647,
1019,01019 - SAINT HONORE VENDOME,237 RUE SAINT HONORE - 75001 PARIS,48.8666980085, 2.32828818572,
7026,07026 - PLACE DE FINLANDE,39 QUAI D'ORSAY - 75007 PARIS,48.86269, 2.31138,
5033,05033 - SAINT SEVERIN,42 RUE SAINT SEVERIN - 75005 PARIS,48.8527056477, 2.34413776325,
12020,12020 - COURS DE VINCENNES - BD SOULT,FACE 118 COURS DE VINCENNES - 75012 PARIS,48.84698907, 2.41014549656,
4001,04001 - NOTRE DAME,10 RUE D'ARCOLE - 75004 PARIS,48.8539841444, 2.34938004529,
16026,16026 - RANELAGH,91 RUE DU RANELAGH - 75016 PARIS,48.8554848837, 2.2704086574,
4021,04021 - BEAUBOURG RAMBUTEAU,49 RUE RAMBUTEAU - 75004 PARIS,48.8614190722, 2.35258144286,
20009,20009 - DOCTEUR DEJERINE,RUE DES DOCTEURS DEJERINE - 75020 PARIS,48.8540232845, 2.41205801661,
5001,05001 - SAINT GERMAIN HARPE,32 RUE DE LA HARPE - 75005 PARIS,48.85158134, 2.34370453672,
8007,08007 - HAUSSMANN ROME,1 RUE DE ROME - 75008 PARIS,48.8742300556, 2.32557011172,
19036,19036 - HOPITAL ROBERT DEBRE,AV DE LA PTE DU PRES SAINT GERVAIS / ANGLE BD D'ALGERIE - 75019 PARIS,48.8799304155, 2.40095050201,
1013,01013 - SAINT HONORE,186 RUE SAINT HONORE - 75001 PARIS,48.8624302348, 2.33852013115,
12037,12037 - DAUMESNIL,53 BOULEVARD DE REUILLY - 75012 PARIS,48.8394854027, 2.39721237629,
4017,04017 - PLACE DE L'HOTEL DE VILLE,11 PLACE DE L'HOTEL DE VILLE - 75004 PARIS,48.857232, 2.351621,
4010,04010 - SAINT PAUL PAVÉE,105-109 TERRE PLEIN SAINT PAUL - 75004 PARIS,48.855023999, 2.36120353876,
17003,17003 - JACQUES KELLNER,4-6 RUE JACQUES KELLNER - 75017 PARIS,48.8958094858, 2.32789740916,
8104,08104 - FRIEDLAND CHATEAUBRIAND,27/31 RUE DE CHATEAUBRIAND - 75008 PARIS,48.8740144756, 2.29991625787,
23011,23011 - BINEAU (LEVALLOIS),16 BOULEVARD BINEAU - 92300 LEVALLOIS-PERRET,48.8866813725, 2.28402369122,
15043,15043 - BRANCION,122 RUE BRANCION - 75015 PARIS,48.8290542165, 2.30141743604,
15005,15005 - PLACE TREFOUEL,FACE 24 BOULEVARD PASTEUR - 75015 PARIS,48.8426508046, 2.31272739021,
6010,06010 - MONTPARNASSE CHEVREUSE,5 RUE DE CHEVREUSE - 75006 PARIS,48.8417391612, 2.33155221674,
8018,08018 - SAINT AUGUSTIN,18 PLACE HENRI BERGSON - 75008 PARIS,48.8762011622, 2.31979392397,
15023,15023 - LA MOTTE PIQUET,146 BOULEVARD GRENELLE - 75015 PARIS,48.8486563159, 2.29924407695,
35005,35005 - GENERAL LECLERC (PANTIN),QUAI DE L'AISNE/AVENUE DU GENERAL LECLERC 93500 PANTIN,48.8957139498, 2.40057189443,
11007,11007 - FAIDHERBE PALAIS DE LA FEMME,17 RUE JEAN MACE - 75011 PARIS,48.853289319, 2.3830411772,
7005,07005 - BAC,FACE 2 BOULEVARD RASPAIL - 75007 PARIS,48.855461736, 2.32568193589,
14015,14015 - CITE UNIVERSITAIRE,FACE 15 BOULEVARD JOURDAN - 75014 PARIS,48.8201501078, 2.33992642819,
35007,35007 - DELESSERT (PANTIN),1 RUE  BENJAMIN DELESSERT - 93500 PANTIN,48.8939437132, 2.41802965969,
11003,11003 - ROQUETTE DALLERY,29 RUE KELLER - 75011 PARIS,48.8555128613, 2.37524034703,
1005,01005 - LES HALLES - SEBASTOPOL,3 RUE DE LA COSSONNERIE - 75001 PARIS,48.8612620698, 2.34939999975,
13107,13107 - MARCHAND SANTE,12 PASSAGE VICTOR MARCHAND - 75013 PARIS,48.8288402184, 2.34196743683,
17010,17010 - JONCQUIERE,90 RUE DE LA JONQUIERE - 75017 PARIS,48.8947686247, 2.31888535397,
35004,35004 - ALLENDE (PANTIN),AVENUE DE LA GARE - 93500 PANTIN,48.8973289368, 2.40057659385,
21105,21105 - MORICE (CLICHY),35-37 RUE MORICE - 92110 CLICHY,48.9026151938, 2.3133206365,
17024,17024 - VILLIERS,1/3 PLACE PROSPER GOUBAUX - 75017 PARIS,48.8812083328, 2.3164496408,
15003,15003 - GARE DE MONTPARNASSE,TP DU 1-13 BOULEVARD DE VAUGIRARD - 75015 PARIS,48.8418071799, 2.3195100269,
12013,12013 - RUE MONTGALLET,FACE 39 RUE MONTGALLET - 75012 PARIS,48.8443126084, 2.38959522722,
13054,13054 - PAU CASALS,1 RUE PAU CASALS - 75013 PARIS,48.8312449684, 2.37726323688,
19004,19004 - QUAI DE LA LOIRE,4 QUAI DE LA LOIRE - 75019 PARIS,48.8833973385, 2.37107452298,
21307,21307 - CRESSON 1 (ISSY LES MOULINEAUX),FACE 36 AVENUE VICTOR CRESSON - 92130 ISSY LES MOULINEAUX,48.8226783671, 2.26863109329,
18033,18033 - MOSKOWA,111 RUE BELLIARD - 75018 PARIS,48.8966923878, 2.33802345039,
33001,33001 - EMGP (AUBERVILLIERS),45 Avenue Victor Hugo - 93300 AUBERVILLIERS,48.9031834065, 2.36802561261,
13113,13113 - CHOISY VISTULE,2 RUE DE LA VISCULE - 75013 PARIS,48.8236339764, 2.36157153416,
18015,18015 - CUSTINE,23 RUE CUSTINE - 75018 PARIS,48.8886197165, 2.34701133583,
21019,21019 - VAILLANT (BOULOGNE-BILLANCOURT),71 AVENUE EDOUARD VAILLANT - 92100 BOULOGNE-BILLANCOURT,48.8348608106, 2.24786255061,
13019,13019 - AURIOL QUAI DE LA GARE,20 RUE FERNAND BRAUDEL - 75013 PARIS,48.8363622524, 2.37237538906,
6032,06032 - RENNES SABOT,7 RUE DU SABOT - 75006 PARIS,48.8525574217, 2.33164772291,
8051,08051 - CHAPTAL,45 BD BATIGNOLLES - 75008 PARIS,48.881914, 2.320284,
15014,15014 - VOLONTAIRES,25 RUE DES VOLONTAIRES - 75015 PARIS,48.8413205018, 2.30808901725,
14028,14028 - PLAISANCE ALESIA,164 RUE ALESIA - 75014 PARIS,48.8316397041, 2.31515852905,
7025,07025 - SUFFREN TOUR EIFFEL,2 AVENUE OCTAVE CREARD - 75007 PARIS,48.8565029777, 2.29317875433,
7010,07010 - INVALIDES,FACE 3 RUE DE CONSTANTINE - 75007 PARIS,48.860769958, 2.3148382795,
6009,06009 - GUYNEMER LUXEMBOURG,26 RUE GUYNEMER - 75006 PARIS,48.8467209826, 2.33239459293,
10003,10003 - HAUTEVILLE,1 RUE D'HAUTEVILLE - 75010 PARIS,48.8707743602, 2.34964963683,
15071,15071 - CHAMP DE MARS COTE 16EME,36 AVENUE DE SUFFREN - 75015 PARIS,48.8548517488, 2.29500791364,
41201,41201 - DE RICARD (FONTENAY SOUS BOIS),RUE LOUIS-XAVIER DE RICARD - 94120 FONTENAY SOUS BOIS,48.8463028607, 2.47240877487,
15052,15052 - CONVENTION,183 RUE DE LA CONVENTION - 75015 PARIS,48.8376768223, 2.29558692602,
21305,21305 - MADAULE (ISSY LES MOULINEAUX),PLACE MADAULE - 92130 ISSY LES MOULINEAUX,48.8241259046, 2.26064598549,
6017,06017 - SENAT CONDE,34 RUE CONDE - 75006 PARIS,48.8495800022, 2.33784843718,
13044,13044 - PLACE JEANNE D'ARC,20 PLACE JEANNE D'ARC - 75013 PARIS,48.8295757268, 2.36912681572,
21302,21302 - BRIAND (ISSY LES MOULINEAUX),PLACE DE LA RESISTANCE ANGLE RUE ARISTIDE BRIAND - 92130 ISSY LES MOULINEAUX,48.8210302529, 2.25101957153,
21206,21206 - PERI (MONTROUGE),35/37 RUE GABRIEL PERI - 92120 MONTROUGE,48.8182337326, 2.32088453255,
15056,15056 - BALARD,13 PLACE BALARD - 75015 PARIS,48.8365372895, 2.27871769702,
7013,07013 - PLACE DE BRETEUIL,17 RUE DUROC - 75007 PARIS,48.8475022584, 2.31268832866,
21002,21002 - DENFERT ROCHEREAU (BOULOGNE-BILLANCOURT),PLACE DENFERT ROCHEREAU - 92100 BOULOGNE BILLANCOURT,48.8431766559, 2.24621423158,
42701,42701 - GIDE (LE KREMLIN BICETRE),FACE 50 AVENUE CHARLES GIDE - 94270 LE KREMELIN BICETRE,48.8072111233, 2.35385267287,
9018,09018 - PLACE PIGALLE,05 RUE DUPERRE - 75009 PARIS,48.882070227, 2.33667963144,
8019,08019 - EUROPE,03 RUE DE NAPLES - 75008 PARIS,48.8799571638, 2.32135967628,
15032,15032 - LOURMEL,112 AVE FELIX FAURE - 75015 PARIS,48.8387344083, 2.28175554014,
17115,17115 - PORTE DE SAINT OUEN,22 AVENUE DE LA PORTE DE SAINT OUEN - 75017 PARIS,48.8987600807, 2.32955851745,
31011,31011 - STALINGRAD 2 (MONTREUIL),27 RUE DE STALINGRAD - 93100 MONTREUIL,48.8589230268, 2.44314211824,
3008,03008 - PERLE,22 RUE DE LA PERLE - 75003 PARIS,48.8598466832, 2.36105048709,
20007,20007 - BUZENVAL,52 RUE BUZENVAL - 75020 PARIS,48.851617205, 2.40151359731,
16004,16004 - BOULEVARD LANNES,FACE 2 BOULEVARD LANNES - 75016 PARIS,48.870753284, 2.27487529834,
10037,10037 - VERSION 2 JAURES,EGLISE SAINT JOSEPH ARTISAN - 75010 PARIS,48.881268164, 2.36811752799,
5028,05028 - CENSIER BUFFON,6 RUE CENSIER - 75005 PARIS,48.841080022, 2.35543071424,
42502,42502 - RASPAIL 2 (GENTILLY),FACE AU 79 AVENUE RASPAIL- 94250 GENTILLY,48.8131276479, 2.34679437435,
5012,05012 - ULM - LHOMOND,20 RUE DE L'ESTRAPADE - 75005 PARIS,48.845143494, 2.34541268121,
8035,08035 - NARVICK,54 RUE DE LA BIENFAISANCE - 75008 PARIS,48.8765999408, 2.31316505436,
10033,10033 - LARIBOISIERE,15 RUE SAINT VINCENT DE PAUL - 75010 PARIS,48.8809557416, 2.35243051484,
18048,18048 - PORTE DE LA CHAPELLE,29 BOULEVARD NEY - 75018 PARIS,48.8983850227, 2.36087734923,
16135,16135 - STADE WILMILLE,ROND POINT DU MARECHAL DELATRE DE TASSIGNY - 75016 PARIS,48.872381, 2.275283,
9102,09102 - PLACE D'ESTIENNE D'ORVES,2 RUE DE LONDRES - 75009 PARIS,48.8767324989, 2.33048422585,
1024,01024 - LOUVRE COQ HERON,20 RUE COQUILLIERE - 75001 PARIS,48.863772832, 2.34270756198,
2013,02013 - RICHELIEU DROUOT,20 RUE FAVART - 75002 PARIS,48.8714463539, 2.33829010585,
15072,15072 - PLACE FERNAND FOREST,1 RUE LINOIS ANGLE QUAI DE GRENELLE - 75015 PARIS,48.849271, 2.281849,
13029,13029 - ITALIE,30 AVENUE D'ITALIE - 75013 PARIS,48.8290320407, 2.35618336918,
1014,01014 - RIVOLI MUSEE DU LOUVRE,5 RUE DE L'ECHELLE - 75001 PARIS,48.8636722554, 2.33405760805,
18108,18108 - EVANGILE,61 RUE DE L'EVANGILE - 75018 PARIS,48.8950903298, 2.36869413984,
11023,11023 - LEO FROT ROQUETTE,2 RUE SAINT MAUR - 75011 PARIS,48.8586887741, 2.38355399457,
11102,11102 - RUE DES BOULETS ( COMPLEMENTAIRE ),3 RUE ALEXANDRE DUMAS - 75011 PARIS,48.8528886704, 2.38914764081,
18021,18021 - MARCADET - RAMEY,98 RUE MARCADET - 75018 PARIS,48.890922383, 2.34498648211,
20012,20012 - BUZENVAL VIGNOLES,90 RUE BUZENVAL - 75020 PARIS,48.8539232761, 2.40003874927,
32601,32601 - PARIS (LES LILAS),46 RUE DE PARIS - 93260 LES LILAS,48.8785903488, 2.41189997789,
18003,18003 - JOSEPH DE MAISTRE LEPIC,2 RUE JOSEPH DE MAISTRE - 75018 PARIS,48.8864568158, 2.33289782791,
10005,10005 - CONSERVATOIRE,59 RUE DES PETITES ECURIES - 75010 PARIS,48.8739721724, 2.3483887575,
17017,17017 - PONT CARDINET,167 RUE DE ROME - 75017 PARIS,48.8871404519, 2.31452160564,
22014,22014 - HUGO (NEUILLY),35 BOULEVARD VICTOR HUGO - 92200 NEUILLY,48.8878010686, 2.27807242437,
10028,10028 - GARE DU NORD DENAN,24 RUE DE DUNKERQUE - 75010 PARIS,48.880370621, 2.35282005703,
11105,11105 - REPUBLIQUE PARMENTIER,82 AVENUE PARMENTIER - 75011 PARIS,48.8645416268, 2.37519519672,
5006,05006 - SAINT JACQUES SOUFFLOT,174 RUE SAINT JACQUES - 75005 PARIS,48.8465169206, 2.34312380337,
22401,22401 - DE GAULLE (MALAKOFF),BOULEVARD CHARLES DE GAULLE (STATION DE METRO) - 92240 MALAKOFF,48.822528306, 2.29863165412,
41601,41601 - GENERAL DE GAULLE (SAINT MANDE),86 AVENUE DU GENERAL DE GAULLE - 94160 SAINT MANDE,48.8390304318, 2.4174104354,
21308,21308 - BARA (ISSY LES MOULINEAUX),23 RUE BARA - 92130 ISSY LES MOULINEAUX,48.83363, 2.26853,
33011,33011 - FAURE (AUBERVILLIERS),FACE 172-174 BOULEVARD FELIX FAURE - 93300 AUBERVILLIERS,48.911393689, 2.37528131997,
12004,12004 - TRAVERSIERE,76 RUE TRAVERSIERE - 75012 PARIS,48.8507358241, 2.37587011171,
21201,21201 - JAURES (MONTROUGE),6 PLACE JEAN JAURES / RUE MAURICE ARNOUX ET RUE CAMILLE PELLETIN - 92120 MONTROUGE,48.816290677, 2.31127954341,
16108,16108 - SABLONS,40 RUE DES SABLONS - 75016 PARIS,48.8638751313, 2.28189073658,
13017,13017 - NATIONALE,167 RUE NATIONALE - 75013 PARIS,48.832527084, 2.36235441039,
5035,05035 - BUFFON AUSTERLITZ,1 RUE BUFFON - 75005 PARIS,48.8431581782, 2.36374844464,
12007,12007 - GARE DE LYON CHALON,FACE 54 RUE DE CHALON - 75012 PARIS,48.8456889756, 2.37420369005,
6012,06012 - SAINT GERMAIN COPEAU,141 BD SAINT GERMAIN - 75006 PARIS,48.8533052776, 2.33446546188,
21010,21010 - SILLY (BOULOGNE-BILLANCOURT),93 RUE DE SILLY - 92100 BOULOGNE-BILLANCOURT,48.8355044075, 2.23253143242,
12034,12034 - PIROGUES DE BERCY,20 RUE DES PIROGUES DE BERCY - 75012 PARIS,48.8323083894, 2.38637027857,
14024,14024 - RAYMOND LOSSERAND,RUE VERCINGETORIX - 75014 PARIS,48.8279894874, 2.30567210646,
4016,04016 - LOBAU,3 RUE LOBAU - 75004 PARIS,48.8562467217, 2.35328134461,
15004,15004 - VAUGIRARD PASTEUR,DEV 71 BOULEVARD DE VAUGIRARD - 75015 PARIS,48.8405958674, 2.3153630382,
6031,06031 - SAINT MICHEL SARRAZIN,5 RUE PIERRE SARAZIN - 75006 PARIS,48.8508336544, 2.34219822807,
10013,10013 - SAINT LOUIS,2 RUE ALIBERT - 75010 PARIS,48.8711399497, 2.36628044397,
11034,11034 - PARMENTIER FONTAINE AU ROI,124 AVENUE PARMENTIER - 75011 PARIS,48.8678767055, 2.37270597867,
17045,17045 - PLACE DES TERNES - 5,5 PLACE DES TERNES - 75017 PARIS,48.8784103865, 2.29783106471,
16129,16129 - BOIS DE BOULOGNE / PORTE DE LA MUETTE 1,CHEMIN DE LA CEINTURE DU LAC INTERIEUR / AVENUE DE SAINT CLOUD - 75016 PARIS,48.862081867, 2.26174638604,
13011,13011 - CAMPO FORMIO,112 BD DE L'HOPITAL - 75013 PARIS,48.835405713, 2.35821834503,
12016,12016 - PICPUS,43 AVENUE DE SAINT MANDE - 75012 PARIS,48.8451282938, 2.40140070767,
4013,04013 - FRANCS BOURGEOIS,50 RUE VIEILLE DU TEMPLE - 75004 PARIS,48.858510713, 2.35863357912,
23002,23002 - FRANCE (LEVALLOIS),157 ANATOLE FRANCE - 92300 LEVALLOIS,48.8983498515, 2.27917948879,
22013,22013 - SAINTE FOY (NEUILLY),2 rue de Chézy - 92200 NEUILLY,48.8851400531, 2.26780000825,
23005,23005 - GARE DE CLICHY LEVALLOIS,Pace du 8 mais 45 (devant la Gare SNCF)  - 92300 LEVALLOIS,48.896746, 2.2982307,
11107,11107 - BIBLIOTHEQUE FAIDHERBE,11 RUE FAIDHERBE - 75011 PARIS,48.8515320053, 2.38372328829,
18016,18016 - FRANCOEUR CAULAINCOURT,1 RUE FRANCOEUR - 75018 PARIS,48.8900229034, 2.34245001268,
19117,19117 - EURYALE DEHAYNIN,22 RUE EURYALE DEHAYNIN - 75019 PARIS,48.8863000511, 2.37738886313,
12043,12043 - DAUMESNIL HEBRARD,108, avenue Daumesnil - 75012 PARIS,48.8429,2017-04-08T18:33:05+02:00
12119,12119 - DOM PÉRIGNON GRAVELLE,ROUTE DOM PERIGNON - 75012 PARIS,48.8255844311, 2.4098309418,
13007,13007 - LE BRUN GOBELINS,42 RUE LE BRUN - 75013 PARIS,48.8350927878, 2.35346813513,
11006,11006 - LEDRU ROLLIN-BASFROI,169 AVENUE LEDRU ROLLIN - 75011 PARIS,48.8564337069, 2.37902058776,
16124,16124 - SÈVRES NEUILLY,Route de Sèvres à Neuilly - 75016 PARIS,48.8750959379, 2.249216988,
15123,15123 - RUE DU COMMERCE,20 RUE DU COMMERCE - 75015 PARIS,48.8479921935, 2.29668168569,
12039,12039 - DECAEN,45 AVENUE DU GENERAL MICHEL BIZOT - 75012 PARIS,48.8348126298, 2.40092778813,
10151,10151 - GARE DU NORD 1,8-10 RUE DE DUNKERQUE - 75010 PARIS,48.879639353, 2.35690495842,
1017,01017 - SAINT HONORE,215 RUE SAINT HONORE - 75001 PARIS,48.8655711428, 2.33056741758,
7006,07006 - QUAI VOLTAIRE,QUAI VOLTAIRE - 75007 PARIS,48.8589429862, 2.33141820471,
1020,01020 - RIVOLI CONCORDE,2 RUE CAMBON - 75001 PARIS,48.8662852212, 2.32524904508,
10007,10007 - CHATEAU D'EAU,57 RUE DU CHATEAU D'EAU - 75010 PARIS,48.8724299733, 2.35548939017,
